{
 "type": "FeatureCollection",
 "crs": {
  "type": "name",
  "properties": {
   "name": "EPSG:4326"
  }
 },
 "features": [
  {
   "type": "Feature",
   "properties": {
    "nome": "Mirim — edge N (HAND 15 m)",
    "grupo": "Mirim",
    "cor": "#f77f00"
   },
   "geometry": {
    "type": "LineString",
    "coordinates": [
     [
      -48.940047,
      -27.104566
     ],
     [
      -48.939549,
      -27.102773
     ],
     [
      -48.93368,
      -27.097383
     ],
     [
      -48.930014,
      -27.096898
     ],
     [
      -48.926526,
      -27.097972
     ],
     [
      -48.923421,
      -27.101288
     ],
     [
      -48.921396,
      -27.101647
     ],
     [
      -48.913744,
      -27.097271
     ],
     [
      -48.914406,
      -27.093017
     ],
     [
      -48.913037,
      -27.091113
     ],
     [
      -48.913417,
      -27.093589
     ],
     [
      -48.912222,
      -27.095513
     ],
     [
      -48.915328,
      -27.092886
     ],
     [
      -48.91675,
      -27.084484
     ],
     [
      -48.913734,
      -27.083098
     ],
     [
      -48.910539,
      -27.077721
     ],
     [
      -48.901727,
      -27.075126
     ],
     [
      -48.898587,
      -27.072969
     ],
     [
      -48.891851,
      -27.06357
     ],
     [
      -48.886406,
      -27.058755
     ],
     [
      -48.88456,
      -27.054117
     ],
     [
      -48.88615,
      -27.049838
     ],
     [
      -48.8854,
      -27.044549
     ],
     [
      -48.878839,
      -27.041345
     ],
     [
      -48.868767,
      -27.031369
     ],
     [
      -48.864257,
      -27.02927
     ],
     [
      -48.860798,
      -27.028851
     ],
     [
      -48.860461,
      -27.029132
     ],
     [
      -48.858469,
      -27.024503
     ],
     [
      -48.859799,
      -27.020731
     ],
     [
      -48.855576,
      -27.013195
     ],
     [
      -48.846283,
      -27.009055
     ],
     [
      -48.840635,
      -27.00271
     ],
     [
      -48.844448,
      -27.001204
     ],
     [
      -48.847484,
      -26.9983
     ],
     [
      -48.848921,
      -26.999013
     ],
     [
      -48.854148,
      -27.005667
     ],
     [
      -48.844515,
      -27.015088
     ],
     [
      -48.84462,
      -27.006794
     ],
     [
      -48.838716,
      -27.001149
     ],
     [
      -48.83113,
      -26.995935
     ],
     [
      -48.825466,
      -26.985982
     ],
     [
      -48.821195,
      -26.983923
     ],
     [
      -48.810809,
      -26.973742
     ],
     [
      -48.811237,
      -26.971563
     ],
     [
      -48.809396,
      -26.967333
     ],
     [
      -48.80665,
      -26.964582
     ],
     [
      -48.802147,
      -26.964261
     ],
     [
      -48.797762,
      -26.961969
     ],
     [
      -48.791623,
      -26.956053
     ],
     [
      -48.784099,
      -26.952176
     ],
     [
      -48.776573,
      -26.94379
     ],
     [
      -48.781807,
      -26.944182
     ],
     [
      -48.783072,
      -26.945519
     ],
     [
      -48.778887,
      -26.942323
     ],
     [
      -48.774547,
      -26.941279
     ],
     [
      -48.77675,
      -26.941965
     ],
     [
      -48.776025,
      -26.941153
     ],
     [
      -48.783454,
      -26.933166
     ],
     [
      -48.780042,
      -26.929745
     ],
     [
      -48.781939,
      -26.932901
     ],
     [
      -48.782642,
      -26.934868
     ],
     [
      -48.77971,
      -26.929375
     ],
     [
      -48.774923,
      -26.922592
     ],
     [
      -48.769803,
      -26.917913
     ],
     [
      -48.749628,
      -26.908153
     ],
     [
      -48.744011,
      -26.907717
     ],
     [
      -48.736566,
      -26.909921
     ],
     [
      -48.719231,
      -26.900828
     ],
     [
      -48.717817,
      -26.8986
     ],
     [
      -48.718082,
      -26.893961
     ],
     [
      -48.704835,
      -26.887482
     ],
     [
      -48.692901,
      -26.889154
     ],
     [
      -48.685755,
      -26.886884
     ]
    ]
   }
  },
  {
   "type": "Feature",
   "properties": {
    "nome": "Mirim — edge S 1/3 (HAND 15 m)",
    "grupo": "Mirim",
    "cor": "#f77f00"
   },
   "geometry": {
    "type": "LineString",
    "coordinates": [
     [
      -48.939558,
      -27.111943
     ],
     [
      -48.937444,
      -27.107382
     ],
     [
      -48.931043,
      -27.101175
     ],
     [
      -48.92994,
      -27.100958
     ],
     [
      -48.925198,
      -27.105463
     ],
     [
      -48.920787,
      -27.106489
     ],
     [
      -48.917152,
      -27.105523
     ],
     [
      -48.905698,
      -27.097935
     ],
     [
      -48.904001,
      -27.095784
     ],
     [
      -48.90322,
      -27.091606
     ],
     [
      -48.905484,
      -27.087857
     ],
     [
      -48.90601,
      -27.086412
     ],
     [
      -48.905303,
      -27.088385
     ],
     [
      -48.903134,
      -27.086711
     ],
     [
      -48.902583,
      -27.083475
     ],
     [
      -48.902616,
      -27.08482
     ],
     [
      -48.894454,
      -27.080976
     ],
     [
      -48.88215,
      -27.069289
     ],
     [
      -48.874386,
      -27.057583
     ],
     [
      -48.873313,
      -27.054131
     ],
     [
      -48.874303,
      -27.047833
     ],
     [
      -48.874023,
      -27.045281
     ],
     [
      -48.871074,
      -27.053836
     ],
     [
      -48.875035,
      -27.05676
     ],
     [
      -48.875514,
      -27.048568
     ],
     [
      -48.870653,
      -27.045692
     ],
     [
      -48.865767,
      -27.040106
     ],
     [
      -48.856588,
      -27.036024
     ],
     [
      -48.853266,
      -27.033242
     ],
     [
      -48.852473,
      -27.031501
     ],
     [
      -48.84709,
      -27.026587
     ],
     [
      -48.84483,
      -27.023115
     ],
     [
      -48.842949,
      -27.021162
     ],
     [
      -48.84602,
      -27.022859
     ],
     [
      -48.844781,
      -27.023084
     ],
     [
      -48.827877,
      -27.014615
     ],
     [
      -48.8232,
      -27.007069
     ],
     [
      -48.823186,
      -27.010151
     ],
     [
      -48.825024,
      -27.013
     ],
     [
      -48.816301,
      -27.000985
     ],
     [
      -48.813957,
      -26.994666
     ],
     [
      -48.810238,
      -26.989247
     ],
     [
      -48.801247,
      -26.991719
     ],
     [
      -48.797175,
      -26.983171
     ],
     [
      -48.794747,
      -26.980082
     ],
     [
      -48.793452,
      -26.977797
     ],
     [
      -48.792514,
      -26.976053
     ],
     [
      -48.793271,
      -26.977006
     ],
     [
      -48.790175,
      -26.977191
     ],
     [
      -48.780191,
      -26.975246
     ],
     [
      -48.772996,
      -26.968653
     ],
     [
      -48.777812,
      -26.971259
     ],
     [
      -48.788519,
      -26.97125
     ],
     [
      -48.782489,
      -26.972953
     ]
    ]
   }
  },
  {
   "type": "Feature",
   "properties": {
    "nome": "Mirim — edge S 2/3 (HAND 15 m)",
    "grupo": "Mirim",
    "cor": "#f77f00"
   },
   "geometry": {
    "type": "LineString",
    "coordinates": [
     [
      -48.76749,
      -26.970902
     ],
     [
      -48.762535,
      -26.963286
     ],
     [
      -48.764006,
      -26.963736
     ],
     [
      -48.756538,
      -26.959449
     ],
     [
      -48.75737,
      -26.95405
     ],
     [
      -48.754944,
      -26.951459
     ],
     [
      -48.741197,
      -26.947662
     ],
     [
      -48.737177,
      -26.94227
     ],
     [
      -48.739768,
      -26.946895
     ],
     [
      -48.741748,
      -26.948227
     ],
     [
      -48.745464,
      -26.949546
     ],
     [
      -48.734947,
      -26.946221
     ],
     [
      -48.728334,
      -26.945604
     ],
     [
      -48.727648,
      -26.948194
     ],
     [
      -48.720947,
      -26.945071
     ],
     [
      -48.718093,
      -26.944908
     ]
    ]
   }
  },
  {
   "type": "Feature",
   "properties": {
    "nome": "Mirim — edge S 3/3 (HAND 15 m)",
    "grupo": "Mirim",
    "cor": "#f77f00"
   },
   "geometry": {
    "type": "LineString",
    "coordinates": [
     [
      -48.691779,
      -26.964021
     ],
     [
      -48.696717,
      -26.967082
     ],
     [
      -48.687822,
      -26.961242
     ],
     [
      -48.69263,
      -26.964465
     ],
     [
      -48.69698,
      -26.953973
     ],
     [
      -48.688717,
      -26.948851
     ],
     [
      -48.687302,
      -26.946622
     ],
     [
      -48.690451,
      -26.937853
     ],
     [
      -48.688558,
      -26.936313
     ],
     [
      -48.688105,
      -26.932706
     ],
     [
      -48.680127,
      -26.927474
     ],
     [
      -48.682217,
      -26.928436
     ],
     [
      -48.680323,
      -26.926895
     ],
     [
      -48.67987,
      -26.92329
     ],
     [
      -48.679882,
      -26.90321
     ],
     [
      -48.679141,
      -26.898868
     ],
     [
      -48.676627,
      -26.894775
     ]
    ]
   }
  }
 ]
}