{"type": "FeatureCollection", "crs": {"type": "name", "properties": {"name": "EPSG:31982"}}, "features": [{"type": "Feature", "properties": {"n": 1, "carta": "SG-22-Z-C-II-1-SE-A"}, "geometry": {"type": "Polygon", "coordinates": [[[567187.9665611779, 6993419.57356245], [567187.9665611779, 6998320.57356245], [560733.9665611779, 6998320.57356245], [560733.9665611779, 6993419.57356245], [567187.9665611779, 6993419.57356245]]]}}, {"type": "Feature", "properties": {"n": 2, "carta": "SG-22-Z-C-II-1-NE-E"}, "geometry": {"type": "Polygon", "coordinates": [[[567187.9665611779, 6998320.57356245], [567187.9665611779, 7003221.57356245], [560733.9665611779, 7003221.57356245], [560733.9665611779, 6998320.57356245], [567187.9665611779, 6998320.57356245]]]}}, {"type": "Feature", "properties": {"n": 3, "carta": "SG-22-Z-C-II-1-NE-C"}, "geometry": {"type": "Polygon", "coordinates": [[[567187.9665611779, 7003221.57356245], [567187.9665611779, 7008122.57356245], [560733.9665611779, 7008122.57356245], [560733.9665611779, 7003221.57356245], [567187.9665611779, 7003221.57356245]]]}}, {"type": "Feature", "properties": {"n": 4, "carta": "SG-22-Z-C-II-1-NE-A"}, "geometry": {"type": "Polygon", "coordinates": [[[567187.9665611779, 7008122.57356245], [567187.9665611779, 7013023.57356245], [560733.9665611779, 7013023.57356245], [560733.9665611779, 7008122.57356245], [567187.9665611779, 7008122.57356245]]]}}, {"type": "Feature", "properties": {"n": 5, "carta": "SG-22-Z-C-II-1-SE-F"}, "geometry": {"type": "Polygon", "coordinates": [[[573641.9665611779, 6983617.57356245], [573641.9665611779, 6988518.57356245], [567187.9665611779, 6988518.57356245], [567187.9665611779, 6983617.57356245], [573641.9665611779, 6983617.57356245]]]}}, {"type": "Feature", "properties": {"n": 6, "carta": "SG-22-Z-C-II-1-SE-D"}, "geometry": {"type": "Polygon", "coordinates": [[[573641.9665611779, 6988518.57356245], [573641.9665611779, 6993419.57356245], [567187.9665611779, 6993419.57356245], [567187.9665611779, 6988518.57356245], [573641.9665611779, 6988518.57356245]]]}}, {"type": "Feature", "properties": {"n": 7, "carta": "SG-22-Z-C-II-1-SE-B"}, "geometry": {"type": "Polygon", "coordinates": [[[573641.9665611779, 6993419.57356245], [573641.9665611779, 6998320.57356245], [567187.9665611779, 6998320.57356245], [567187.9665611779, 6993419.57356245], [573641.9665611779, 6993419.57356245]]]}}, {"type": "Feature", "properties": {"n": 8, "carta": "SG-22-Z-C-II-1-NE-F"}, "geometry": {"type": "Polygon", "coordinates": [[[573641.9665611779, 6998320.57356245], [573641.9665611779, 7003221.57356245], [567187.9665611779, 7003221.57356245], [567187.9665611779, 6998320.57356245], [573641.9665611779, 6998320.57356245]]]}}, {"type": "Feature", "properties": {"n": 9, "carta": "SG-22-Z-C-II-1-NE-D"}, "geometry": {"type": "Polygon", "coordinates": [[[573641.9665611779, 7003221.57356245], [573641.9665611779, 7008122.57356245], [567187.9665611779, 7008122.57356245], [567187.9665611779, 7003221.57356245], [573641.9665611779, 7003221.57356245]]]}}, {"type": "Feature", "properties": {"n": 10, "carta": "SG-22-Z-C-II-1-NE-B"}, "geometry": {"type": "Polygon", "coordinates": [[[573641.9665611779, 7008122.57356245], [573641.9665611779, 7013023.57356245], [567187.9665611779, 7013023.57356245], [567187.9665611779, 7008122.57356245], [573641.9665611779, 7008122.57356245]]]}}, {"type": "Feature", "properties": {"n": 11, "carta": "SG-22-Z-A-V-3-SE-F"}, "geometry": {"type": "Polygon", "coordinates": [[[573641.9665611779, 7013023.57356245], [573641.9665611779, 7017924.57356245], [567187.9665611779, 7017924.57356245], [567187.9665611779, 7013023.57356245], [573641.9665611779, 7013023.57356245]]]}}, {"type": "Feature", "properties": {"n": 12, "carta": "SG-22-Z-A-V-3-SE-D"}, "geometry": {"type": "Polygon", "coordinates": [[[573641.9665611779, 7017924.57356245], [573641.9665611779, 7022825.57356245], [567187.9665611779, 7022825.57356245], [567187.9665611779, 7017924.57356245], [573641.9665611779, 7017924.57356245]]]}}, {"type": "Feature", "properties": {"n": 13, "carta": "SG-22-Z-A-V-3-SE-B"}, "geometry": {"type": "Polygon", "coordinates": [[[573641.9665611779, 7022825.57356245], [573641.9665611779, 7027726.57356245], [567187.9665611779, 7027726.57356245], [567187.9665611779, 7022825.57356245], [573641.9665611779, 7022825.57356245]]]}}, {"type": "Feature", "properties": {"n": 14, "carta": "SG-22-Z-A-V-3-NE-F"}, "geometry": {"type": "Polygon", "coordinates": [[[573641.9665611779, 7027726.57356245], [573641.9665611779, 7032627.57356245], [567187.9665611779, 7032627.57356245], [567187.9665611779, 7027726.57356245], [573641.9665611779, 7027726.57356245]]]}}, {"type": "Feature", "properties": {"n": 15, "carta": "SG-22-Z-A-II-4-SO-E"}, "geometry": {"type": "Polygon", "coordinates": [[[580095.9665611779, 7066934.57356245], [580095.9665611779, 7071835.57356245], [573641.9665611779, 7071835.57356245], [573641.9665611779, 7066934.57356245], [580095.9665611779, 7066934.57356245]]]}}, {"type": "Feature", "properties": {"n": 16, "carta": "SG-22-Z-A-II-4-SO-C"}, "geometry": {"type": "Polygon", "coordinates": [[[580095.9665611779, 7071835.57356245], [580095.9665611779, 7076736.57356245], [573641.9665611779, 7076736.57356245], [573641.9665611779, 7071835.57356245], [580095.9665611779, 7071835.57356245]]]}}, {"type": "Feature", "properties": {"n": 17, "carta": "SG-22-Z-A-II-4-SO-A"}, "geometry": {"type": "Polygon", "coordinates": [[[580095.9665611779, 7076736.57356245], [580095.9665611779, 7081637.57356245], [573641.9665611779, 7081637.57356245], [573641.9665611779, 7076736.57356245], [580095.9665611779, 7076736.57356245]]]}}, {"type": "Feature", "properties": {"n": 18, "carta": "SG-22-Z-A-II-4-NO-E"}, "geometry": {"type": "Polygon", "coordinates": [[[580095.9665611779, 7081637.57356245], [580095.9665611779, 7086538.57356245], [573641.9665611779, 7086538.57356245], [573641.9665611779, 7081637.57356245], [580095.9665611779, 7081637.57356245]]]}}, {"type": "Feature", "properties": {"n": 19, "carta": "SG-22-Z-A-II-4-SO-F"}, "geometry": {"type": "Polygon", "coordinates": [[[586549.9665611779, 7066934.57356245], [586549.9665611779, 7071835.57356245], [580095.9665611779, 7071835.57356245], [580095.9665611779, 7066934.57356245], [586549.9665611779, 7066934.57356245]]]}}, {"type": "Feature", "properties": {"n": 20, "carta": "SG-22-Z-A-II-4-SO-D"}, "geometry": {"type": "Polygon", "coordinates": [[[586549.9665611779, 7071835.57356245], [586549.9665611779, 7076736.57356245], [580095.9665611779, 7076736.57356245], [580095.9665611779, 7071835.57356245], [586549.9665611779, 7071835.57356245]]]}}, {"type": "Feature", "properties": {"n": 21, "carta": "SG-22-Z-A-II-4-SO-B"}, "geometry": {"type": "Polygon", "coordinates": [[[586549.9665611779, 7076736.57356245], [586549.9665611779, 7081637.57356245], [580095.9665611779, 7081637.57356245], [580095.9665611779, 7076736.57356245], [586549.9665611779, 7076736.57356245]]]}}, {"type": "Feature", "properties": {"n": 22, "carta": "SG-22-Z-A-II-4-NO-F"}, "geometry": {"type": "Polygon", "coordinates": [[[586549.9665611779, 7081637.57356245], [586549.9665611779, 7086538.57356245], [580095.9665611779, 7086538.57356245], [580095.9665611779, 7081637.57356245], [586549.9665611779, 7081637.57356245]]]}}, {"type": "Feature", "properties": {"n": 23, "carta": "SG-22-Z-A-II-4-SE-E"}, "geometry": {"type": "Polygon", "coordinates": [[[593003.9665611779, 7066934.57356245], [593003.9665611779, 7071835.57356245], [586549.9665611779, 7071835.57356245], [586549.9665611779, 7066934.57356245], [593003.9665611779, 7066934.57356245]]]}}, {"type": "Feature", "properties": {"n": 24, "carta": "SG-22-Z-A-II-4-SE-C"}, "geometry": {"type": "Polygon", "coordinates": [[[593003.9665611779, 7071835.57356245], [593003.9665611779, 7076736.57356245], [586549.9665611779, 7076736.57356245], [586549.9665611779, 7071835.57356245], [593003.9665611779, 7071835.57356245]]]}}, {"type": "Feature", "properties": {"n": 25, "carta": "SG-22-Z-A-II-4-SE-A"}, "geometry": {"type": "Polygon", "coordinates": [[[593003.9665611779, 7076736.57356245], [593003.9665611779, 7081637.57356245], [586549.9665611779, 7081637.57356245], [586549.9665611779, 7076736.57356245], [593003.9665611779, 7076736.57356245]]]}}, {"type": "Feature", "properties": {"n": 26, "carta": "SG-22-Z-A-II-4-SE-F"}, "geometry": {"type": "Polygon", "coordinates": [[[599457.9665611779, 7066934.57356245], [599457.9665611779, 7071835.57356245], [593003.9665611779, 7071835.57356245], [593003.9665611779, 7066934.57356245], [599457.9665611779, 7066934.57356245]]]}}, {"type": "Feature", "properties": {"n": 27, "carta": "SG-22-Z-A-II-4-SE-D"}, "geometry": {"type": "Polygon", "coordinates": [[[599457.9665611779, 7071835.57356245], [599457.9665611779, 7076736.57356245], [593003.9665611779, 7076736.57356245], [593003.9665611779, 7071835.57356245], [599457.9665611779, 7071835.57356245]]]}}, {"type": "Feature", "properties": {"n": 28, "carta": "SG-22-Z-A-III-3-SO-E"}, "geometry": {"type": "Polygon", "coordinates": [[[605911.9665611779, 7066934.57356245], [605911.9665611779, 7071835.57356245], [599457.9665611779, 7071835.57356245], [599457.9665611779, 7066934.57356245], [605911.9665611779, 7066934.57356245]]]}}, {"type": "Feature", "properties": {"n": 29, "carta": "SG-22-Z-A-III-3-SO-C"}, "geometry": {"type": "Polygon", "coordinates": [[[605911.9665611779, 7071835.57356245], [605911.9665611779, 7076736.57356245], [599457.9665611779, 7076736.57356245], [599457.9665611779, 7071835.57356245], [605911.9665611779, 7071835.57356245]]]}}, {"type": "Feature", "properties": {"n": 30, "carta": "SG-22-Z-A-III-3-SO-F"}, "geometry": {"type": "Polygon", "coordinates": [[[612365.9665611779, 7066934.57356245], [612365.9665611779, 7071835.57356245], [605911.9665611779, 7071835.57356245], [605911.9665611779, 7066934.57356245], [612365.9665611779, 7066934.57356245]]]}}, {"type": "Feature", "properties": {"n": 31, "carta": "SG-22-Z-A-III-3-SO-D"}, "geometry": {"type": "Polygon", "coordinates": [[[612365.9665611779, 7071835.57356245], [612365.9665611779, 7076736.57356245], [605911.9665611779, 7076736.57356245], [605911.9665611779, 7071835.57356245], [612365.9665611779, 7071835.57356245]]]}}, {"type": "Feature", "properties": {"n": 32, "carta": "SG-22-Z-A-III-3-SE-E"}, "geometry": {"type": "Polygon", "coordinates": [[[618819.9665611779, 7066934.57356245], [618819.9665611779, 7071835.57356245], [612365.9665611779, 7071835.57356245], [612365.9665611779, 7066934.57356245], [618819.9665611779, 7066934.57356245]]]}}, {"type": "Feature", "properties": {"n": 33, "carta": "SG-22-Z-A-III-4-SE-F"}, "geometry": {"type": "Polygon", "coordinates": [[[651089.9665611779, 7066934.57356245], [651089.9665611779, 7071835.57356245], [644635.9665611779, 7071835.57356245], [644635.9665611779, 7066934.57356245], [651089.9665611779, 7066934.57356245]]]}}, {"type": "Feature", "properties": {"n": 34, "carta": "SG-22-Z-B-I-3-SO-E"}, "geometry": {"type": "Polygon", "coordinates": [[[657543.9665611779, 7066934.57356245], [657543.9665611779, 7071835.57356245], [651089.9665611779, 7071835.57356245], [651089.9665611779, 7066934.57356245], [657543.9665611779, 7066934.57356245]]]}}, {"type": "Feature", "properties": {"n": 35, "carta": "SG-22-Z-B-I-3-SO-F"}, "geometry": {"type": "Polygon", "coordinates": [[[663997.9665611779, 7066934.57356245], [663997.9665611779, 7071835.57356245], [657543.9665611779, 7071835.57356245], [657543.9665611779, 7066934.57356245], [663997.9665611779, 7066934.57356245]]]}}, {"type": "Feature", "properties": {"n": 36, "carta": "SG-22-Z-B-I-3-SE-E"}, "geometry": {"type": "Polygon", "coordinates": [[[670451.9665611779, 7066934.57356245], [670451.9665611779, 7071835.57356245], [663997.9665611779, 7071835.57356245], [663997.9665611779, 7066934.57356245], [670451.9665611779, 7066934.57356245]]]}}, {"type": "Feature", "properties": {"n": 37, "carta": "SG-22-Z-B-V-4-NE-E"}, "geometry": {"type": "Polygon", "coordinates": [[[741445.9665611779, 7022825.57356245], [741445.9665611779, 7027726.57356245], [734991.9665611779, 7027726.57356245], [734991.9665611779, 7022825.57356245], [741445.9665611779, 7022825.57356245]]]}}]}