{
 "type": "FeatureCollection",
 "crs": {
  "type": "name",
  "properties": {
   "name": "EPSG:4326"
  }
 },
 "features": [
  {
   "type": "Feature",
   "properties": {
    "nome": "Açu — edge N 1/18 (HAND 15 m)",
    "grupo": "Açu",
    "cor": "#d62828"
   },
   "geometry": {
    "type": "LineString",
    "coordinates": [
     [
      -49.430007,
      -27.072883
     ],
     [
      -49.423869,
      -27.068473
     ],
     [
      -49.419609,
      -27.060791
     ],
     [
      -49.415064,
      -27.056638
     ],
     [
      -49.410347,
      -27.056358
     ],
     [
      -49.407485,
      -27.058163
     ],
     [
      -49.396057,
      -27.050667
     ],
     [
      -49.401212,
      -27.043798
     ],
     [
      -49.402856,
      -27.03878
     ],
     [
      -49.399405,
      -27.034385
     ]
    ]
   }
  },
  {
   "type": "Feature",
   "properties": {
    "nome": "Açu — edge N 2/18 (HAND 15 m)",
    "grupo": "Açu",
    "cor": "#d62828"
   },
   "geometry": {
    "type": "LineString",
    "coordinates": [
     [
      -49.376772,
      -27.019216
     ],
     [
      -49.376485,
      -27.013862
     ],
     [
      -49.37835,
      -27.01154
     ],
     [
      -49.380709,
      -26.998319
     ],
     [
      -49.386528,
      -26.990336
     ],
     [
      -49.384956,
      -26.987056
     ],
     [
      -49.37295,
      -26.979039
     ],
     [
      -49.372005,
      -26.971581
     ],
     [
      -49.377021,
      -26.96357
     ],
     [
      -49.377404,
      -26.959961
     ],
     [
      -49.375696,
      -26.956837
     ],
     [
      -49.364421,
      -26.948323
     ],
     [
      -49.359426,
      -26.946702
     ],
     [
      -49.354719,
      -26.949506
     ],
     [
      -49.35505,
      -26.95232
     ],
     [
      -49.350412,
      -26.957495
     ],
     [
      -49.342334,
      -26.962477
     ],
     [
      -49.338105,
      -26.960453
     ],
     [
      -49.335519,
      -26.961362
     ],
     [
      -49.326592,
      -26.96083
     ],
     [
      -49.324056,
      -26.962018
     ],
     [
      -49.320874,
      -26.96139
     ],
     [
      -49.319445,
      -26.960411
     ],
     [
      -49.319288,
      -26.948236
     ],
     [
      -49.30584,
      -26.952864
     ],
     [
      -49.294715,
      -26.950253
     ],
     [
      -49.292777,
      -26.947738
     ],
     [
      -49.293312,
      -26.942024
     ],
     [
      -49.286264,
      -26.933501
     ],
     [
      -49.281597,
      -26.922894
     ],
     [
      -49.281096,
      -26.918665
     ]
    ]
   }
  },
  {
   "type": "Feature",
   "properties": {
    "nome": "Açu — edge N 3/18 (HAND 15 m)",
    "grupo": "Açu",
    "cor": "#d62828"
   },
   "geometry": {
    "type": "LineString",
    "coordinates": [
     [
      -49.225814,
      -26.885183
     ],
     [
      -49.222524,
      -26.881479
     ],
     [
      -49.219101,
      -26.879708
     ],
     [
      -49.209937,
      -26.881695
     ]
    ]
   }
  },
  {
   "type": "Feature",
   "properties": {
    "nome": "Açu — edge N 4/18 (HAND 15 m)",
    "grupo": "Açu",
    "cor": "#d62828"
   },
   "geometry": {
    "type": "LineString",
    "coordinates": [
     [
      -49.119933,
      -26.884735
     ],
     [
      -49.116222,
      -26.884239
     ],
     [
      -49.1118,
      -26.877819
     ],
     [
      -49.100178,
      -26.879504
     ],
     [
      -49.097944,
      -26.875458
     ],
     [
      -49.094976,
      -26.873687
     ],
     [
      -49.089857,
      -26.874136
     ],
     [
      -49.082525,
      -26.872629
     ],
     [
      -49.072536,
      -26.874085
     ],
     [
      -49.083169,
      -26.881378
     ],
     [
      -49.080927,
      -26.883594
     ],
     [
      -49.075131,
      -26.895396
     ],
     [
      -49.070464,
      -26.895186
     ]
    ]
   }
  },
  {
   "type": "Feature",
   "properties": {
    "nome": "Açu — edge N 5/18 (HAND 15 m)",
    "grupo": "Açu",
    "cor": "#d62828"
   },
   "geometry": {
    "type": "LineString",
    "coordinates": [
     [
      -49.063106,
      -26.913509
     ],
     [
      -49.060561,
      -26.915229
     ],
     [
      -49.064778,
      -26.918108
     ],
     [
      -49.063008,
      -26.912782
     ],
     [
      -49.059825,
      -26.910436
     ]
    ]
   }
  },
  {
   "type": "Feature",
   "properties": {
    "nome": "Açu — edge N 6/18 (HAND 15 m)",
    "grupo": "Açu",
    "cor": "#d62828"
   },
   "geometry": {
    "type": "LineString",
    "coordinates": [
     [
      -49.040023,
      -26.894959
     ],
     [
      -49.029494,
      -26.905235
     ],
     [
      -49.024293,
      -26.90384
     ],
     [
      -49.017967,
      -26.894582
     ],
     [
      -49.010111,
      -26.891413
     ],
     [
      -49.007708,
      -26.888301
     ],
     [
      -49.000205,
      -26.887676
     ],
     [
      -48.990469,
      -26.890482
     ],
     [
      -48.987703,
      -26.89262
     ],
     [
      -48.983742,
      -26.90032
     ],
     [
      -48.972098,
      -26.915433
     ],
     [
      -48.967367,
      -26.916265
     ],
     [
      -48.959296,
      -26.911607
     ],
     [
      -48.949221,
      -26.907502
     ],
     [
      -48.946467,
      -26.908196
     ],
     [
      -48.946766,
      -26.908104
     ],
     [
      -48.95111,
      -26.906003
     ],
     [
      -48.960853,
      -26.914406
     ],
     [
      -48.965435,
      -26.917171
     ],
     [
      -48.964537,
      -26.91929
     ],
     [
      -48.960746,
      -26.914434
     ],
     [
      -48.958233,
      -26.911861
     ],
     [
      -48.956808,
      -26.909957
     ],
     [
      -48.952313,
      -26.905893
     ],
     [
      -48.946871,
      -26.906719
     ],
     [
      -48.935292,
      -26.90232
     ],
     [
      -48.925039,
      -26.902776
     ],
     [
      -48.921575,
      -26.89249
     ],
     [
      -48.919059,
      -26.892453
     ],
     [
      -48.91293,
      -26.893058
     ],
     [
      -48.914103,
      -26.893192
     ],
     [
      -48.907544,
      -26.891553
     ],
     [
      -48.897358,
      -26.892672
     ],
     [
      -48.890662,
      -26.888177
     ],
     [
      -48.884503,
      -26.889636
     ],
     [
      -48.878032,
      -26.894827
     ]
    ]
   }
  },
  {
   "type": "Feature",
   "properties": {
    "nome": "Açu — edge N 7/18 (HAND 15 m)",
    "grupo": "Açu",
    "cor": "#d62828"
   },
   "geometry": {
    "type": "LineString",
    "coordinates": [
     [
      -48.912683,
      -26.888682
     ],
     [
      -48.91658,
      -26.896573
     ],
     [
      -48.91308,
      -26.893331
     ],
     [
      -48.895902,
      -26.891994
     ],
     [
      -48.88319,
      -26.88723
     ],
     [
      -48.889998,
      -26.889763
     ],
     [
      -48.877967,
      -26.883628
     ],
     [
      -48.86349,
      -26.882282
     ]
    ]
   }
  },
  {
   "type": "Feature",
   "properties": {
    "nome": "Açu — edge N 8/18 (HAND 15 m)",
    "grupo": "Açu",
    "cor": "#d62828"
   },
   "geometry": {
    "type": "LineString",
    "coordinates": [
     [
      -48.860218,
      -26.879309
     ],
     [
      -48.863725,
      -26.880382
     ],
     [
      -48.853057,
      -26.87726
     ],
     [
      -48.856387,
      -26.878715
     ],
     [
      -48.854068,
      -26.877842
     ],
     [
      -48.853968,
      -26.878177
     ],
     [
      -48.849408,
      -26.876201
     ],
     [
      -48.841222,
      -26.873987
     ],
     [
      -48.849353,
      -26.876982
     ],
     [
      -48.857738,
      -26.881402
     ],
     [
      -48.856199,
      -26.879617
     ],
     [
      -48.854661,
      -26.877832
     ],
     [
      -48.84739,
      -26.880019
     ],
     [
      -48.842047,
      -26.874585
     ],
     [
      -48.840612,
      -26.86833
     ],
     [
      -48.837556,
      -26.861293
     ],
     [
      -48.842775,
      -26.849541
     ],
     [
      -48.835491,
      -26.840761
     ],
     [
      -48.822291,
      -26.841945
     ],
     [
      -48.821156,
      -26.836573
     ],
     [
      -48.828332,
      -26.838718
     ],
     [
      -48.826014,
      -26.837845
     ]
    ]
   }
  },
  {
   "type": "Feature",
   "properties": {
    "nome": "Açu — edge N 9/18 (HAND 15 m)",
    "grupo": "Açu",
    "cor": "#d62828"
   },
   "geometry": {
    "type": "LineString",
    "coordinates": [
     [
      -48.818893,
      -26.850436
     ],
     [
      -48.827797,
      -26.851688
     ],
     [
      -48.823467,
      -26.852853
     ],
     [
      -48.821143,
      -26.850975
     ]
    ]
   }
  },
  {
   "type": "Feature",
   "properties": {
    "nome": "Açu — edge N 10/18 (HAND 15 m)",
    "grupo": "Açu",
    "cor": "#d62828"
   },
   "geometry": {
    "type": "LineString",
    "coordinates": [
     [
      -48.794966,
      -26.866879
     ],
     [
      -48.77893,
      -26.864036
     ]
    ]
   }
  },
  {
   "type": "Feature",
   "properties": {
    "nome": "Açu — edge N 11/18 (HAND 15 m)",
    "grupo": "Açu",
    "cor": "#d62828"
   },
   "geometry": {
    "type": "LineString",
    "coordinates": [
     [
      -48.822233,
      -26.84899
     ],
     [
      -48.827598,
      -26.856681
     ],
     [
      -48.836945,
      -26.85926
     ],
     [
      -48.841164,
      -26.86944
     ],
     [
      -48.84232,
      -26.881314
     ],
     [
      -48.841996,
      -26.874541
     ]
    ]
   }
  },
  {
   "type": "Feature",
   "properties": {
    "nome": "Açu — edge N 12/18 (HAND 15 m)",
    "grupo": "Açu",
    "cor": "#d62828"
   },
   "geometry": {
    "type": "LineString",
    "coordinates": [
     [
      -48.785449,
      -26.871409
     ],
     [
      -48.780149,
      -26.864558
     ],
     [
      -48.774761,
      -26.862217
     ],
     [
      -48.773876,
      -26.857273
     ],
     [
      -48.770321,
      -26.851561
     ],
     [
      -48.761445,
      -26.853492
     ],
     [
      -48.754047,
      -26.85235
     ],
     [
      -48.750197,
      -26.845962
     ]
    ]
   }
  },
  {
   "type": "Feature",
   "properties": {
    "nome": "Açu — edge N 13/18 (HAND 15 m)",
    "grupo": "Açu",
    "cor": "#d62828"
   },
   "geometry": {
    "type": "LineString",
    "coordinates": [
     [
      -48.750658,
      -26.846997
     ],
     [
      -48.749606,
      -26.844085
     ],
     [
      -48.760238,
      -26.83571
     ],
     [
      -48.759712,
      -26.824676
     ],
     [
      -48.755686,
      -26.815759
     ],
     [
      -48.746549,
      -26.80556
     ]
    ]
   }
  },
  {
   "type": "Feature",
   "properties": {
    "nome": "Açu — edge N 14/18 (HAND 15 m)",
    "grupo": "Açu",
    "cor": "#d62828"
   },
   "geometry": {
    "type": "LineString",
    "coordinates": [
     [
      -48.709909,
      -26.838341
     ],
     [
      -48.707256,
      -26.843976
     ],
     [
      -48.706666,
      -26.84843
     ],
     [
      -48.703452,
      -26.850634
     ]
    ]
   }
  },
  {
   "type": "Feature",
   "properties": {
    "nome": "Açu — edge N 15/18 (HAND 15 m)",
    "grupo": "Açu",
    "cor": "#d62828"
   },
   "geometry": {
    "type": "LineString",
    "coordinates": [
     [
      -48.765958,
      -26.82828
     ],
     [
      -48.764212,
      -26.826657
     ],
     [
      -48.760837,
      -26.826444
     ],
     [
      -48.762022,
      -26.822284
     ],
     [
      -48.754059,
      -26.815513
     ],
     [
      -48.741374,
      -26.812164
     ]
    ]
   }
  },
  {
   "type": "Feature",
   "properties": {
    "nome": "Açu — edge N 16/18 (HAND 15 m)",
    "grupo": "Açu",
    "cor": "#d62828"
   },
   "geometry": {
    "type": "LineString",
    "coordinates": [
     [
      -48.709663,
      -26.847487
     ],
     [
      -48.700088,
      -26.848903
     ],
     [
      -48.68826,
      -26.852616
     ],
     [
      -48.680734,
      -26.857615
     ],
     [
      -48.675344,
      -26.859285
     ],
     [
      -48.670497,
      -26.865012
     ]
    ]
   }
  },
  {
   "type": "Feature",
   "properties": {
    "nome": "Açu — edge N 17/18 (HAND 15 m)",
    "grupo": "Açu",
    "cor": "#d62828"
   },
   "geometry": {
    "type": "LineString",
    "coordinates": [
     [
      -48.683831,
      -26.848587
     ],
     [
      -48.689488,
      -26.849246
     ],
     [
      -48.700326,
      -26.853257
     ],
     [
      -48.698121,
      -26.852186
     ]
    ]
   }
  },
  {
   "type": "Feature",
   "properties": {
    "nome": "Açu — edge N 18/18 (HAND 15 m)",
    "grupo": "Açu",
    "cor": "#d62828"
   },
   "geometry": {
    "type": "LineString",
    "coordinates": [
     [
      -48.588961,
      -26.837437
     ],
     [
      -48.584154,
      -26.842715
     ],
     [
      -48.583598,
      -26.84545
     ],
     [
      -48.589985,
      -26.841205
     ]
    ]
   }
  },
  {
   "type": "Feature",
   "properties": {
    "nome": "Açu — edge S 1/19 (HAND 15 m)",
    "grupo": "Açu",
    "cor": "#d62828"
   },
   "geometry": {
    "type": "LineString",
    "coordinates": [
     [
      -49.429156,
      -27.076458
     ],
     [
      -49.426315,
      -27.075653
     ],
     [
      -49.419233,
      -27.068726
     ],
     [
      -49.414738,
      -27.061045
     ],
     [
      -49.413191,
      -27.059886
     ],
     [
      -49.410168,
      -27.060919
     ]
    ]
   }
  },
  {
   "type": "Feature",
   "properties": {
    "nome": "Açu — edge S 2/19 (HAND 15 m)",
    "grupo": "Açu",
    "cor": "#d62828"
   },
   "geometry": {
    "type": "LineString",
    "coordinates": [
     [
      -49.393816,
      -27.041788
     ],
     [
      -49.391486,
      -27.040316
     ],
     [
      -49.386346,
      -27.031035
     ],
     [
      -49.371816,
      -27.020875
     ],
     [
      -49.369595,
      -27.018814
     ],
     [
      -49.368269,
      -27.014797
     ],
     [
      -49.373145,
      -27.008694
     ],
     [
      -49.377016,
      -26.991333
     ],
     [
      -49.376025,
      -26.988132
     ],
     [
      -49.377057,
      -26.991089
     ],
     [
      -49.375325,
      -26.989807
     ],
     [
      -49.375173,
      -26.98961
     ],
     [
      -49.368464,
      -26.985762
     ],
     [
      -49.36619,
      -26.982354
     ],
     [
      -49.364468,
      -26.97014
     ],
     [
      -49.366767,
      -26.964578
     ],
     [
      -49.36594,
      -26.961451
     ],
     [
      -49.36753,
      -26.959201
     ],
     [
      -49.36112,
      -26.95545
     ],
     [
      -49.362073,
      -26.95492
     ],
     [
      -49.358846,
      -26.95581
     ],
     [
      -49.351337,
      -26.962936
     ],
     [
      -49.347476,
      -26.965078
     ],
     [
      -49.336598,
      -26.967788
     ],
     [
      -49.320951,
      -26.967029
     ],
     [
      -49.315622,
      -26.963523
     ],
     [
      -49.315366,
      -26.960362
     ],
     [
      -49.318004,
      -26.952521
     ],
     [
      -49.313587,
      -26.954905
     ],
     [
      -49.305779,
      -26.956925
     ],
     [
      -49.292975,
      -26.954004
     ],
     [
      -49.289106,
      -26.949763
     ],
     [
      -49.288659,
      -26.943628
     ],
     [
      -49.283848,
      -26.939278
     ],
     [
      -49.279396,
      -26.932366
     ],
     [
      -49.276566,
      -26.91861
     ]
    ]
   }
  },
  {
   "type": "Feature",
   "properties": {
    "nome": "Açu — edge S 3/19 (HAND 15 m)",
    "grupo": "Açu",
    "cor": "#d62828"
   },
   "geometry": {
    "type": "LineString",
    "coordinates": [
     [
      -49.152291,
      -26.898753
     ],
     [
      -49.148106,
      -26.899745
     ],
     [
      -49.138466,
      -26.894496
     ]
    ]
   }
  },
  {
   "type": "Feature",
   "properties": {
    "nome": "Açu — edge S 4/19 (HAND 15 m)",
    "grupo": "Açu",
    "cor": "#d62828"
   },
   "geometry": {
    "type": "LineString",
    "coordinates": [
     [
      -49.11808,
      -26.888442
     ],
     [
      -49.115416,
      -26.888212
     ],
     [
      -49.111923,
      -26.88552
     ],
     [
      -49.109097,
      -26.880957
     ],
     [
      -49.10221,
      -26.882428
     ],
     [
      -49.098636,
      -26.881512
     ],
     [
      -49.096151,
      -26.877803
     ],
     [
      -49.092538,
      -26.877408
     ]
    ]
   }
  },
  {
   "type": "Feature",
   "properties": {
    "nome": "Açu — edge S 5/19 (HAND 15 m)",
    "grupo": "Açu",
    "cor": "#d62828"
   },
   "geometry": {
    "type": "LineString",
    "coordinates": [
     [
      -49.085879,
      -26.892074
     ],
     [
      -49.075359,
      -26.900534
     ],
     [
      -49.071223,
      -26.90052
     ],
     [
      -49.068717,
      -26.898933
     ]
    ]
   }
  },
  {
   "type": "Feature",
   "properties": {
    "nome": "Açu — edge S 6/19 (HAND 15 m)",
    "grupo": "Açu",
    "cor": "#d62828"
   },
   "geometry": {
    "type": "LineString",
    "coordinates": [
     [
      -49.071988,
      -26.924759
     ],
     [
      -49.067362,
      -26.923093
     ],
     [
      -49.062751,
      -26.925153
     ],
     [
      -49.054266,
      -26.920598
     ],
     [
      -49.053897,
      -26.916989
     ],
     [
      -49.057717,
      -26.91553
     ]
    ]
   }
  },
  {
   "type": "Feature",
   "properties": {
    "nome": "Açu — edge S 7/19 (HAND 15 m)",
    "grupo": "Açu",
    "cor": "#d62828"
   },
   "geometry": {
    "type": "LineString",
    "coordinates": [
     [
      -49.04179,
      -26.898253
     ],
     [
      -49.040303,
      -26.901767
     ],
     [
      -49.030287,
      -26.910314
     ],
     [
      -49.020399,
      -26.908068
     ],
     [
      -49.015806,
      -26.904779
     ],
     [
      -49.004833,
      -26.900208
     ],
     [
      -48.999874,
      -26.899572
     ],
     [
      -48.996121,
      -26.897228
     ],
     [
      -48.994078,
      -26.897194
     ],
     [
      -48.995712,
      -26.896413
     ],
     [
      -48.995546,
      -26.897099
     ],
     [
      -48.994651,
      -26.898219
     ],
     [
      -48.992347,
      -26.900443
     ],
     [
      -48.989946,
      -26.905868
     ],
     [
      -49.002276,
      -26.921224
     ],
     [
      -49.002244,
      -26.924127
     ],
     [
      -48.9983,
      -26.927215
     ],
     [
      -48.99563,
      -26.931229
     ],
     [
      -48.995166,
      -26.938456
     ],
     [
      -48.992898,
      -26.939516
     ],
     [
      -48.991124,
      -26.94859
     ],
     [
      -48.989373,
      -26.950362
     ],
     [
      -48.987026,
      -26.94372
     ],
     [
      -48.981995,
      -26.937842
     ],
     [
      -48.970887,
      -26.936044
     ],
     [
      -48.955477,
      -26.93663
     ],
     [
      -48.951056,
      -26.930692
     ],
     [
      -48.951987,
      -26.925796
     ],
     [
      -48.94964,
      -26.922138
     ],
     [
      -48.944317,
      -26.917657
     ],
     [
      -48.940766,
      -26.918411
     ]
    ]
   }
  },
  {
   "type": "Feature",
   "properties": {
    "nome": "Açu — edge S 8/19 (HAND 15 m)",
    "grupo": "Açu",
    "cor": "#d62828"
   },
   "geometry": {
    "type": "LineString",
    "coordinates": [
     [
      -48.916227,
      -26.950847
     ],
     [
      -48.91409,
      -26.949655
     ],
     [
      -48.911714,
      -26.948807
     ],
     [
      -48.916687,
      -26.950967
     ],
     [
      -48.923279,
      -26.951924
     ],
     [
      -48.930593,
      -26.945014
     ],
     [
      -48.928076,
      -26.944977
     ],
     [
      -48.933602,
      -26.944718
     ],
     [
      -48.923076,
      -26.949371
     ],
     [
      -48.920443,
      -26.954206
     ],
     [
      -48.917926,
      -26.954168
     ],
     [
      -48.924344,
      -26.94898
     ],
     [
      -48.913064,
      -26.949629
     ],
     [
      -48.918954,
      -26.947476
     ],
     [
      -48.929992,
      -26.943303
     ],
     [
      -48.928961,
      -26.944292
     ],
     [
      -48.932126,
      -26.941706
     ],
     [
      -48.930316,
      -26.943275
     ],
     [
      -48.928508,
      -26.944844
     ],
     [
      -48.926699,
      -26.946413
     ],
     [
      -48.92489,
      -26.947981
     ]
    ]
   }
  },
  {
   "type": "Feature",
   "properties": {
    "nome": "Açu — edge S 9/19 (HAND 15 m)",
    "grupo": "Açu",
    "cor": "#d62828"
   },
   "geometry": {
    "type": "LineString",
    "coordinates": [
     [
      -48.907328,
      -26.934959
     ],
     [
      -48.904629,
      -26.936165
     ],
     [
      -48.891949,
      -26.935237
     ],
     [
      -48.88251,
      -26.932112
     ],
     [
      -48.875966,
      -26.925515
     ],
     [
      -48.876264,
      -26.920257
     ],
     [
      -48.868972,
      -26.918126
     ],
     [
      -48.862909,
      -26.913139
     ],
     [
      -48.857877,
      -26.913063
     ],
     [
      -48.853429,
      -26.91788
     ],
     [
      -48.837237,
      -26.913784
     ],
     [
      -48.829323,
      -26.92115
     ],
     [
      -48.828541,
      -26.920753
     ],
     [
      -48.829654,
      -26.921598
     ],
     [
      -48.82036,
      -26.918675
     ],
     [
      -48.812216,
      -26.912925
     ],
     [
      -48.801336,
      -26.909852
     ],
     [
      -48.794379,
      -26.918356
     ],
     [
      -48.796815,
      -26.919864
     ],
     [
      -48.800603,
      -26.910182
     ],
     [
      -48.802695,
      -26.910767
     ],
     [
      -48.805316,
      -26.911771
     ],
     [
      -48.802853,
      -26.911126
     ],
     [
      -48.791495,
      -26.917332
     ],
     [
      -48.785691,
      -26.914958
     ],
     [
      -48.767404,
      -26.897519
     ],
     [
      -48.773768,
      -26.90276
     ]
    ]
   }
  },
  {
   "type": "Feature",
   "properties": {
    "nome": "Açu — edge S 10/19 (HAND 15 m)",
    "grupo": "Açu",
    "cor": "#d62828"
   },
   "geometry": {
    "type": "LineString",
    "coordinates": [
     [
      -48.818785,
      -26.909145
     ],
     [
      -48.800666,
      -26.915046
     ],
     [
      -48.79472,
      -26.918643
     ]
    ]
   }
  },
  {
   "type": "Feature",
   "properties": {
    "nome": "Açu — edge S 11/19 (HAND 15 m)",
    "grupo": "Açu",
    "cor": "#d62828"
   },
   "geometry": {
    "type": "LineString",
    "coordinates": [
     [
      -48.764204,
      -26.896167
     ],
     [
      -48.753561,
      -26.887672
     ],
     [
      -48.740928,
      -26.885793
     ]
    ]
   }
  },
  {
   "type": "Feature",
   "properties": {
    "nome": "Açu — edge S 12/19 (HAND 15 m)",
    "grupo": "Açu",
    "cor": "#d62828"
   },
   "geometry": {
    "type": "LineString",
    "coordinates": [
     [
      -48.756428,
      -26.89443
     ],
     [
      -48.761978,
      -26.891502
     ],
     [
      -48.759017,
      -26.889509
     ],
     [
      -48.757012,
      -26.892149
     ],
     [
      -48.754538,
      -26.892552
     ]
    ]
   }
  },
  {
   "type": "Feature",
   "properties": {
    "nome": "Açu — edge S 13/19 (HAND 15 m)",
    "grupo": "Açu",
    "cor": "#d62828"
   },
   "geometry": {
    "type": "LineString",
    "coordinates": [
     [
      -48.753689,
      -26.853083
     ],
     [
      -48.754189,
      -26.849193
     ],
     [
      -48.752742,
      -26.853682
     ],
     [
      -48.748835,
      -26.842705
     ],
     [
      -48.752208,
      -26.848771
     ]
    ]
   }
  },
  {
   "type": "Feature",
   "properties": {
    "nome": "Açu — edge S 14/19 (HAND 15 m)",
    "grupo": "Açu",
    "cor": "#d62828"
   },
   "geometry": {
    "type": "LineString",
    "coordinates": [
     [
      -48.752649,
      -26.887768
     ],
     [
      -48.74383,
      -26.893129
     ],
     [
      -48.737556,
      -26.894355
     ],
     [
      -48.726305,
      -26.893589
     ],
     [
      -48.716232,
      -26.895004
     ],
     [
      -48.703396,
      -26.89167
     ],
     [
      -48.696564,
      -26.888331
     ],
     [
      -48.692536,
      -26.888681
     ],
     [
      -48.689487,
      -26.888184
     ],
     [
      -48.686762,
      -26.887406
     ],
     [
      -48.690155,
      -26.889022
     ],
     [
      -48.688013,
      -26.887773
     ],
     [
      -48.690402,
      -26.888566
     ],
     [
      -48.704767,
      -26.887795
     ]
    ]
   }
  },
  {
   "type": "Feature",
   "properties": {
    "nome": "Açu — edge S 15/19 (HAND 15 m)",
    "grupo": "Açu",
    "cor": "#d62828"
   },
   "geometry": {
    "type": "LineString",
    "coordinates": [
     [
      -48.697149,
      -26.888502
     ],
     [
      -48.679896,
      -26.888512
     ]
    ]
   }
  },
  {
   "type": "Feature",
   "properties": {
    "nome": "Açu — edge S 16/19 (HAND 15 m)",
    "grupo": "Açu",
    "cor": "#d62828"
   },
   "geometry": {
    "type": "LineString",
    "coordinates": [
     [
      -48.657358,
      -26.914883
     ],
     [
      -48.652031,
      -26.918286
     ],
     [
      -48.664076,
      -26.922592
     ],
     [
      -48.670586,
      -26.917812
     ]
    ]
   }
  },
  {
   "type": "Feature",
   "properties": {
    "nome": "Açu — edge S 17/19 (HAND 15 m)",
    "grupo": "Açu",
    "cor": "#d62828"
   },
   "geometry": {
    "type": "LineString",
    "coordinates": [
     [
      -48.678882,
      -26.899306
     ],
     [
      -48.677954,
      -26.888729
     ],
     [
      -48.67623,
      -26.883642
     ],
     [
      -48.683862,
      -26.881217
     ]
    ]
   }
  },
  {
   "type": "Feature",
   "properties": {
    "nome": "Açu — edge S 18/19 (HAND 15 m)",
    "grupo": "Açu",
    "cor": "#d62828"
   },
   "geometry": {
    "type": "LineString",
    "coordinates": [
     [
      -48.669606,
      -26.916126
     ],
     [
      -48.674168,
      -26.92344
     ],
     [
      -48.666926,
      -26.928024
     ],
     [
      -48.681314,
      -26.923406
     ],
     [
      -48.679503,
      -26.92497
     ],
     [
      -48.676119,
      -26.925074
     ]
    ]
   }
  },
  {
   "type": "Feature",
   "properties": {
    "nome": "Açu — edge S 19/19 (HAND 15 m)",
    "grupo": "Açu",
    "cor": "#d62828"
   },
   "geometry": {
    "type": "LineString",
    "coordinates": [
     [
      -48.662677,
      -26.915824
     ],
     [
      -48.657367,
      -26.919711
     ],
     [
      -48.649555,
      -26.92297
     ]
    ]
   }
  },
  {
   "type": "Feature",
   "properties": {
    "nome": "Mirim — edge N (HAND 15 m)",
    "grupo": "Mirim",
    "cor": "#f77f00"
   },
   "geometry": {
    "type": "LineString",
    "coordinates": [
     [
      -48.940047,
      -27.104566
     ],
     [
      -48.939549,
      -27.102773
     ],
     [
      -48.93368,
      -27.097383
     ],
     [
      -48.930014,
      -27.096898
     ],
     [
      -48.926526,
      -27.097972
     ],
     [
      -48.923421,
      -27.101288
     ],
     [
      -48.921396,
      -27.101647
     ],
     [
      -48.913744,
      -27.097271
     ],
     [
      -48.914406,
      -27.093017
     ],
     [
      -48.913037,
      -27.091113
     ],
     [
      -48.913417,
      -27.093589
     ],
     [
      -48.912222,
      -27.095513
     ],
     [
      -48.915328,
      -27.092886
     ],
     [
      -48.91675,
      -27.084484
     ],
     [
      -48.913734,
      -27.083098
     ],
     [
      -48.910539,
      -27.077721
     ],
     [
      -48.901727,
      -27.075126
     ],
     [
      -48.898587,
      -27.072969
     ],
     [
      -48.891851,
      -27.06357
     ],
     [
      -48.886406,
      -27.058755
     ],
     [
      -48.88456,
      -27.054117
     ],
     [
      -48.88615,
      -27.049838
     ],
     [
      -48.8854,
      -27.044549
     ],
     [
      -48.878839,
      -27.041345
     ],
     [
      -48.868767,
      -27.031369
     ],
     [
      -48.864257,
      -27.02927
     ],
     [
      -48.860798,
      -27.028851
     ],
     [
      -48.860461,
      -27.029132
     ],
     [
      -48.858469,
      -27.024503
     ],
     [
      -48.859799,
      -27.020731
     ],
     [
      -48.855576,
      -27.013195
     ],
     [
      -48.846283,
      -27.009055
     ],
     [
      -48.840635,
      -27.00271
     ],
     [
      -48.844448,
      -27.001204
     ],
     [
      -48.847484,
      -26.9983
     ],
     [
      -48.848921,
      -26.999013
     ],
     [
      -48.854148,
      -27.005667
     ],
     [
      -48.844515,
      -27.015088
     ],
     [
      -48.84462,
      -27.006794
     ],
     [
      -48.838716,
      -27.001149
     ],
     [
      -48.83113,
      -26.995935
     ],
     [
      -48.825466,
      -26.985982
     ],
     [
      -48.821195,
      -26.983923
     ],
     [
      -48.810809,
      -26.973742
     ],
     [
      -48.811237,
      -26.971563
     ],
     [
      -48.809396,
      -26.967333
     ],
     [
      -48.80665,
      -26.964582
     ],
     [
      -48.802147,
      -26.964261
     ],
     [
      -48.797762,
      -26.961969
     ],
     [
      -48.791623,
      -26.956053
     ],
     [
      -48.784099,
      -26.952176
     ],
     [
      -48.776573,
      -26.94379
     ],
     [
      -48.781807,
      -26.944182
     ],
     [
      -48.783072,
      -26.945519
     ],
     [
      -48.778887,
      -26.942323
     ],
     [
      -48.774547,
      -26.941279
     ],
     [
      -48.77675,
      -26.941965
     ],
     [
      -48.776025,
      -26.941153
     ],
     [
      -48.783454,
      -26.933166
     ],
     [
      -48.780042,
      -26.929745
     ],
     [
      -48.781939,
      -26.932901
     ],
     [
      -48.782642,
      -26.934868
     ],
     [
      -48.77971,
      -26.929375
     ],
     [
      -48.774923,
      -26.922592
     ],
     [
      -48.769803,
      -26.917913
     ],
     [
      -48.749628,
      -26.908153
     ],
     [
      -48.744011,
      -26.907717
     ],
     [
      -48.736566,
      -26.909921
     ],
     [
      -48.719231,
      -26.900828
     ],
     [
      -48.717817,
      -26.8986
     ],
     [
      -48.718082,
      -26.893961
     ],
     [
      -48.704835,
      -26.887482
     ],
     [
      -48.692901,
      -26.889154
     ],
     [
      -48.685755,
      -26.886884
     ]
    ]
   }
  },
  {
   "type": "Feature",
   "properties": {
    "nome": "Mirim — edge S 1/3 (HAND 15 m)",
    "grupo": "Mirim",
    "cor": "#f77f00"
   },
   "geometry": {
    "type": "LineString",
    "coordinates": [
     [
      -48.939558,
      -27.111943
     ],
     [
      -48.937444,
      -27.107382
     ],
     [
      -48.931043,
      -27.101175
     ],
     [
      -48.92994,
      -27.100958
     ],
     [
      -48.925198,
      -27.105463
     ],
     [
      -48.920787,
      -27.106489
     ],
     [
      -48.917152,
      -27.105523
     ],
     [
      -48.905698,
      -27.097935
     ],
     [
      -48.904001,
      -27.095784
     ],
     [
      -48.90322,
      -27.091606
     ],
     [
      -48.905484,
      -27.087857
     ],
     [
      -48.90601,
      -27.086412
     ],
     [
      -48.905303,
      -27.088385
     ],
     [
      -48.903134,
      -27.086711
     ],
     [
      -48.902583,
      -27.083475
     ],
     [
      -48.902616,
      -27.08482
     ],
     [
      -48.894454,
      -27.080976
     ],
     [
      -48.88215,
      -27.069289
     ],
     [
      -48.874386,
      -27.057583
     ],
     [
      -48.873313,
      -27.054131
     ],
     [
      -48.874303,
      -27.047833
     ],
     [
      -48.874023,
      -27.045281
     ],
     [
      -48.871074,
      -27.053836
     ],
     [
      -48.875035,
      -27.05676
     ],
     [
      -48.875514,
      -27.048568
     ],
     [
      -48.870653,
      -27.045692
     ],
     [
      -48.865767,
      -27.040106
     ],
     [
      -48.856588,
      -27.036024
     ],
     [
      -48.853266,
      -27.033242
     ],
     [
      -48.852473,
      -27.031501
     ],
     [
      -48.84709,
      -27.026587
     ],
     [
      -48.84483,
      -27.023115
     ],
     [
      -48.842949,
      -27.021162
     ],
     [
      -48.84602,
      -27.022859
     ],
     [
      -48.844781,
      -27.023084
     ],
     [
      -48.827877,
      -27.014615
     ],
     [
      -48.8232,
      -27.007069
     ],
     [
      -48.823186,
      -27.010151
     ],
     [
      -48.825024,
      -27.013
     ],
     [
      -48.816301,
      -27.000985
     ],
     [
      -48.813957,
      -26.994666
     ],
     [
      -48.810238,
      -26.989247
     ],
     [
      -48.801247,
      -26.991719
     ],
     [
      -48.797175,
      -26.983171
     ],
     [
      -48.794747,
      -26.980082
     ],
     [
      -48.793452,
      -26.977797
     ],
     [
      -48.792514,
      -26.976053
     ],
     [
      -48.793271,
      -26.977006
     ],
     [
      -48.790175,
      -26.977191
     ],
     [
      -48.780191,
      -26.975246
     ],
     [
      -48.772996,
      -26.968653
     ],
     [
      -48.777812,
      -26.971259
     ],
     [
      -48.788519,
      -26.97125
     ],
     [
      -48.782489,
      -26.972953
     ]
    ]
   }
  },
  {
   "type": "Feature",
   "properties": {
    "nome": "Mirim — edge S 2/3 (HAND 15 m)",
    "grupo": "Mirim",
    "cor": "#f77f00"
   },
   "geometry": {
    "type": "LineString",
    "coordinates": [
     [
      -48.76749,
      -26.970902
     ],
     [
      -48.762535,
      -26.963286
     ],
     [
      -48.764006,
      -26.963736
     ],
     [
      -48.756538,
      -26.959449
     ],
     [
      -48.75737,
      -26.95405
     ],
     [
      -48.754944,
      -26.951459
     ],
     [
      -48.741197,
      -26.947662
     ],
     [
      -48.737177,
      -26.94227
     ],
     [
      -48.739768,
      -26.946895
     ],
     [
      -48.741748,
      -26.948227
     ],
     [
      -48.745464,
      -26.949546
     ],
     [
      -48.734947,
      -26.946221
     ],
     [
      -48.728334,
      -26.945604
     ],
     [
      -48.727648,
      -26.948194
     ],
     [
      -48.720947,
      -26.945071
     ],
     [
      -48.718093,
      -26.944908
     ]
    ]
   }
  },
  {
   "type": "Feature",
   "properties": {
    "nome": "Mirim — edge S 3/3 (HAND 15 m)",
    "grupo": "Mirim",
    "cor": "#f77f00"
   },
   "geometry": {
    "type": "LineString",
    "coordinates": [
     [
      -48.691779,
      -26.964021
     ],
     [
      -48.696717,
      -26.967082
     ],
     [
      -48.687822,
      -26.961242
     ],
     [
      -48.69263,
      -26.964465
     ],
     [
      -48.69698,
      -26.953973
     ],
     [
      -48.688717,
      -26.948851
     ],
     [
      -48.687302,
      -26.946622
     ],
     [
      -48.690451,
      -26.937853
     ],
     [
      -48.688558,
      -26.936313
     ],
     [
      -48.688105,
      -26.932706
     ],
     [
      -48.680127,
      -26.927474
     ],
     [
      -48.682217,
      -26.928436
     ],
     [
      -48.680323,
      -26.926895
     ],
     [
      -48.67987,
      -26.92329
     ],
     [
      -48.679882,
      -26.90321
     ],
     [
      -48.679141,
      -26.898868
     ],
     [
      -48.676627,
      -26.894775
     ]
    ]
   }
  },
  {
   "type": "Feature",
   "properties": {
    "nome": "Oeste — edge N 1/5 (HAND 15 m)",
    "grupo": "Oeste",
    "cor": "#9d4edd"
   },
   "geometry": {
    "type": "LineString",
    "coordinates": [
     [
      -49.992043,
      -27.106852
     ],
     [
      -49.993087,
      -27.107134
     ],
     [
      -49.987217,
      -27.105502
     ],
     [
      -49.977595,
      -27.106234
     ]
    ]
   }
  },
  {
   "type": "Feature",
   "properties": {
    "nome": "Oeste — edge N 2/5 (HAND 15 m)",
    "grupo": "Oeste",
    "cor": "#9d4edd"
   },
   "geometry": {
    "type": "LineString",
    "coordinates": [
     [
      -49.960785,
      -27.113423
     ],
     [
      -49.961275,
      -27.116926
     ],
     [
      -49.95889,
      -27.119551
     ],
     [
      -49.953957,
      -27.12016
     ],
     [
      -49.944169,
      -27.126958
     ],
     [
      -49.940536,
      -27.125797
     ],
     [
      -49.936573,
      -27.126113
     ],
     [
      -49.92998,
      -27.129298
     ],
     [
      -49.927775,
      -27.134448
     ],
     [
      -49.923828,
      -27.135413
     ],
     [
      -49.917649,
      -27.141321
     ],
     [
      -49.919325,
      -27.148011
     ],
     [
      -49.925637,
      -27.146145
     ],
     [
      -49.925382,
      -27.144739
     ],
     [
      -49.924342,
      -27.145932
     ],
     [
      -49.923166,
      -27.146663
     ],
     [
      -49.924042,
      -27.14667
     ],
     [
      -49.924678,
      -27.146837
     ],
     [
      -49.922584,
      -27.14544
     ],
     [
      -49.919341,
      -27.144296
     ],
     [
      -49.914776,
      -27.143281
     ],
     [
      -49.912295,
      -27.144557
     ],
     [
      -49.912525,
      -27.14567
     ],
     [
      -49.9081,
      -27.139819
     ],
     [
      -49.903619,
      -27.13729
     ],
     [
      -49.900056,
      -27.138204
     ],
     [
      -49.901922,
      -27.142504
     ],
     [
      -49.900395,
      -27.144581
     ],
     [
      -49.898783,
      -27.146826
     ],
     [
      -49.898643,
      -27.14764
     ],
     [
      -49.900789,
      -27.146849
     ],
     [
      -49.897658,
      -27.145075
     ],
     [
      -49.892878,
      -27.144846
     ],
     [
      -49.893818,
      -27.145952
     ],
     [
      -49.892441,
      -27.144513
     ],
     [
      -49.88689,
      -27.143358
     ],
     [
      -49.884907,
      -27.145124
     ],
     [
      -49.879164,
      -27.142891
     ],
     [
      -49.874652,
      -27.143165
     ],
     [
      -49.87091,
      -27.146098
     ],
     [
      -49.881779,
      -27.147363
     ]
    ]
   }
  },
  {
   "type": "Feature",
   "properties": {
    "nome": "Oeste — edge N 3/5 (HAND 15 m)",
    "grupo": "Oeste",
    "cor": "#9d4edd"
   },
   "geometry": {
    "type": "LineString",
    "coordinates": [
     [
      -49.861255,
      -27.151467
     ],
     [
      -49.856159,
      -27.152225
     ],
     [
      -49.852704,
      -27.159038
     ],
     [
      -49.853621,
      -27.162874
     ],
     [
      -49.853813,
      -27.166192
     ],
     [
      -49.856735,
      -27.169237
     ],
     [
      -49.854256,
      -27.16586
     ],
     [
      -49.856009,
      -27.163843
     ],
     [
      -49.862795,
      -27.163645
     ],
     [
      -49.865845,
      -27.167591
     ],
     [
      -49.863845,
      -27.164446
     ],
     [
      -49.857528,
      -27.162681
     ],
     [
      -49.853319,
      -27.162309
     ],
     [
      -49.850796,
      -27.162288
     ],
     [
      -49.845225,
      -27.161277
     ],
     [
      -49.843177,
      -27.159355
     ],
     [
      -49.837525,
      -27.16058
     ],
     [
      -49.837815,
      -27.164177
     ],
     [
      -49.842438,
      -27.169784
     ],
     [
      -49.839031,
      -27.172853
     ],
     [
      -49.839617,
      -27.174511
     ],
     [
      -49.840052,
      -27.174952
     ],
     [
      -49.841759,
      -27.17362
     ],
     [
      -49.841088,
      -27.173989
     ],
     [
      -49.838552,
      -27.175187
     ],
     [
      -49.836727,
      -27.176268
     ],
     [
      -49.832506,
      -27.173549
     ],
     [
      -49.824889,
      -27.17218
     ],
     [
      -49.819528,
      -27.174218
     ],
     [
      -49.817645,
      -27.176709
     ],
     [
      -49.816899,
      -27.18491
     ],
     [
      -49.802353,
      -27.182002
     ],
     [
      -49.795146,
      -27.185446
     ],
     [
      -49.781275,
      -27.18815
     ]
    ]
   }
  },
  {
   "type": "Feature",
   "properties": {
    "nome": "Oeste — edge N 4/5 (HAND 15 m)",
    "grupo": "Oeste",
    "cor": "#9d4edd"
   },
   "geometry": {
    "type": "LineString",
    "coordinates": [
     [
      -49.773978,
      -27.202838
     ],
     [
      -49.778688,
      -27.20044
     ],
     [
      -49.778188,
      -27.19541
     ],
     [
      -49.778118,
      -27.195985
     ],
     [
      -49.774372,
      -27.197657
     ],
     [
      -49.771338,
      -27.199418
     ],
     [
      -49.7742,
      -27.199581
     ],
     [
      -49.779184,
      -27.202429
     ],
     [
      -49.773515,
      -27.200047
     ],
     [
      -49.772208,
      -27.199434
     ],
     [
      -49.771956,
      -27.198956
     ],
     [
      -49.771991,
      -27.197422
     ],
     [
      -49.76602,
      -27.192755
     ],
     [
      -49.763081,
      -27.196132
     ],
     [
      -49.76139,
      -27.208896
     ],
     [
      -49.759525,
      -27.20926
     ],
     [
      -49.750751,
      -27.204272
     ],
     [
      -49.747183,
      -27.205177
     ],
     [
      -49.743871,
      -27.209599
     ]
    ]
   }
  },
  {
   "type": "Feature",
   "properties": {
    "nome": "Oeste — edge N 5/5 (HAND 15 m)",
    "grupo": "Oeste",
    "cor": "#9d4edd"
   },
   "geometry": {
    "type": "LineString",
    "coordinates": [
     [
      -49.689589,
      -27.24141
     ],
     [
      -49.688394,
      -27.243015
     ],
     [
      -49.687322,
      -27.244265
     ],
     [
      -49.688137,
      -27.244599
     ],
     [
      -49.687579,
      -27.244014
     ],
     [
      -49.685745,
      -27.242631
     ],
     [
      -49.683874,
      -27.240977
     ],
     [
      -49.678879,
      -27.235076
     ]
    ]
   }
  },
  {
   "type": "Feature",
   "properties": {
    "nome": "Oeste — edge S 1/2 (HAND 15 m)",
    "grupo": "Oeste",
    "cor": "#9d4edd"
   },
   "geometry": {
    "type": "LineString",
    "coordinates": [
     [
      -49.990822,
      -27.11695
     ],
     [
      -49.977554,
      -27.110702
     ],
     [
      -49.964544,
      -27.114675
     ],
     [
      -49.964008,
      -27.119602
     ],
     [
      -49.959701,
      -27.123341
     ],
     [
      -49.95481,
      -27.12415
     ],
     [
      -49.939376,
      -27.130768
     ],
     [
      -49.934296,
      -27.131546
     ],
     [
      -49.932962,
      -27.135873
     ],
     [
      -49.931143,
      -27.13828
     ],
     [
      -49.929112,
      -27.143697
     ],
     [
      -49.927953,
      -27.144875
     ],
     [
      -49.931698,
      -27.138919
     ],
     [
      -49.931206,
      -27.136538
     ],
     [
      -49.931086,
      -27.138175
     ],
     [
      -49.935155,
      -27.143577
     ],
     [
      -49.926621,
      -27.151914
     ],
     [
      -49.922598,
      -27.152833
     ],
     [
      -49.917002,
      -27.152234
     ],
     [
      -49.91375,
      -27.15044
     ],
     [
      -49.917581,
      -27.149715
     ],
     [
      -49.916094,
      -27.150334
     ],
     [
      -49.907445,
      -27.147936
     ],
     [
      -49.907192,
      -27.145229
     ],
     [
      -49.906384,
      -27.144088
     ],
     [
      -49.901723,
      -27.141424
     ],
     [
      -49.905047,
      -27.138339
     ],
     [
      -49.906979,
      -27.144633
     ],
     [
      -49.904232,
      -27.146868
     ],
     [
      -49.90367,
      -27.149522
     ],
     [
      -49.900905,
      -27.15214
     ],
     [
      -49.896487,
      -27.151573
     ],
     [
      -49.894582,
      -27.152827
     ],
     [
      -49.885396,
      -27.153353
     ],
     [
      -49.882442,
      -27.15154
     ],
     [
      -49.890385,
      -27.153021
     ],
     [
      -49.881118,
      -27.150834
     ],
     [
      -49.882215,
      -27.149892
     ],
     [
      -49.879037,
      -27.151438
     ],
     [
      -49.877003,
      -27.15318
     ],
     [
      -49.86952,
      -27.153027
     ],
     [
      -49.867951,
      -27.149721
     ],
     [
      -49.873512,
      -27.15271
     ],
     [
      -49.877875,
      -27.15269
     ],
     [
      -49.875959,
      -27.156865
     ],
     [
      -49.867244,
      -27.156771
     ],
     [
      -49.864644,
      -27.158804
     ],
     [
      -49.861411,
      -27.159125
     ],
     [
      -49.859948,
      -27.159159
     ],
     [
      -49.864941,
      -27.165755
     ],
     [
      -49.865179,
      -27.169871
     ],
     [
      -49.862527,
      -27.17265
     ],
     [
      -49.857419,
      -27.173049
     ],
     [
      -49.854691,
      -27.169492
     ],
     [
      -49.851996,
      -27.168574
     ],
     [
      -49.852494,
      -27.16895
     ],
     [
      -49.853249,
      -27.169214
     ],
     [
      -49.850742,
      -27.167569
     ],
     [
      -49.838907,
      -27.16559
     ],
     [
      -49.845975,
      -27.165721
     ],
     [
      -49.846702,
      -27.161082
     ],
     [
      -49.850466,
      -27.165565
     ],
     [
      -49.852497,
      -27.169175
     ],
     [
      -49.846086,
      -27.17341
     ],
     [
      -49.846053,
      -27.176077
     ],
     [
      -49.843983,
      -27.178731
     ],
     [
      -49.834397,
      -27.18134
     ],
     [
      -49.826133,
      -27.17945
     ],
     [
      -49.824093,
      -27.176487
     ],
     [
      -49.819052,
      -27.187528
     ],
     [
      -49.81287,
      -27.188783
     ],
     [
      -49.805582,
      -27.187056
     ],
     [
      -49.800552,
      -27.192132
     ],
     [
      -49.799399,
      -27.192104
     ],
     [
      -49.794623,
      -27.193653
     ],
     [
      -49.790682,
      -27.194281
     ],
     [
      -49.791093,
      -27.194172
     ],
     [
      -49.791549,
      -27.193915
     ],
     [
      -49.790242,
      -27.195022
     ],
     [
      -49.79144,
      -27.193975
     ],
     [
      -49.789731,
      -27.189065
     ],
     [
      -49.792231,
      -27.191539
     ],
     [
      -49.792683,
      -27.200741
     ],
     [
      -49.785396,
      -27.200694
     ],
     [
      -49.783498,
      -27.202531
     ],
     [
      -49.781265,
      -27.204112
     ],
     [
      -49.77989,
      -27.206065
     ],
     [
      -49.778066,
      -27.207089
     ],
     [
      -49.774102,
      -27.208517
     ],
     [
      -49.769868,
      -27.205666
     ],
     [
      -49.769097,
      -27.205208
     ],
     [
      -49.766441,
      -27.20339
     ],
     [
      -49.761998,
      -27.197334
     ],
     [
      -49.769504,
      -27.202421
     ],
     [
      -49.782169,
      -27.201425
     ],
     [
      -49.78328,
      -27.203692
     ],
     [
      -49.780985,
      -27.205929
     ],
     [
      -49.766247,
      -27.208444
     ],
     [
      -49.764817,
      -27.211241
     ],
     [
      -49.761536,
      -27.213166
     ],
     [
      -49.755057,
      -27.211623
     ],
     [
      -49.75043,
      -27.207713
     ],
     [
      -49.747653,
      -27.210991
     ]
    ]
   }
  },
  {
   "type": "Feature",
   "properties": {
    "nome": "Oeste — edge S 2/2 (HAND 15 m)",
    "grupo": "Oeste",
    "cor": "#9d4edd"
   },
   "geometry": {
    "type": "LineString",
    "coordinates": [
     [
      -49.693108,
      -27.243981
     ],
     [
      -49.689389,
      -27.247418
     ],
     [
      -49.686089,
      -27.247764
     ],
     [
      -49.675542,
      -27.235905
     ]
    ]
   }
  },
  {
   "type": "Feature",
   "properties": {
    "nome": "Sul — edge N 1/4 (HAND 15 m)",
    "grupo": "Sul",
    "cor": "#0077b6"
   },
   "geometry": {
    "type": "LineString",
    "coordinates": [
     [
      -49.420032,
      -27.662047
     ],
     [
      -49.420605,
      -27.66065
     ],
     [
      -49.425809,
      -27.658345
     ],
     [
      -49.424933,
      -27.657841
     ],
     [
      -49.431254,
      -27.66128
     ],
     [
      -49.435895,
      -27.660736
     ],
     [
      -49.44172,
      -27.652178
     ]
    ]
   }
  },
  {
   "type": "Feature",
   "properties": {
    "nome": "Sul — edge N 2/4 (HAND 15 m)",
    "grupo": "Sul",
    "cor": "#0077b6"
   },
   "geometry": {
    "type": "LineString",
    "coordinates": [
     [
      -49.457232,
      -27.586815
     ],
     [
      -49.454876,
      -27.581127
     ],
     [
      -49.45541,
      -27.578882
     ],
     [
      -49.456011,
      -27.576792
     ],
     [
      -49.455858,
      -27.578081
     ],
     [
      -49.462663,
      -27.577572
     ],
     [
      -49.466893,
      -27.568638
     ],
     [
      -49.472017,
      -27.568
     ],
     [
      -49.474855,
      -27.565107
     ],
     [
      -49.474484,
      -27.558972
     ],
     [
      -49.473147,
      -27.558098
     ],
     [
      -49.482125,
      -27.557079
     ]
    ]
   }
  },
  {
   "type": "Feature",
   "properties": {
    "nome": "Sul — edge N 3/4 (HAND 15 m)",
    "grupo": "Sul",
    "cor": "#0077b6"
   },
   "geometry": {
    "type": "LineString",
    "coordinates": [
     [
      -49.573435,
      -27.502874
     ],
     [
      -49.579733,
      -27.49115
     ],
     [
      -49.583313,
      -27.488159
     ],
     [
      -49.583795,
      -27.485416
     ],
     [
      -49.577781,
      -27.470971
     ],
     [
      -49.577759,
      -27.466685
     ],
     [
      -49.58027,
      -27.458719
     ],
     [
      -49.585937,
      -27.458824
     ],
     [
      -49.587661,
      -27.455642
     ],
     [
      -49.585317,
      -27.453028
     ],
     [
      -49.58164,
      -27.451596
     ],
     [
      -49.581972,
      -27.450085
     ]
    ]
   }
  },
  {
   "type": "Feature",
   "properties": {
    "nome": "Sul — edge N 4/4 (HAND 15 m)",
    "grupo": "Sul",
    "cor": "#0077b6"
   },
   "geometry": {
    "type": "LineString",
    "coordinates": [
     [
      -49.607005,
      -27.394056
     ],
     [
      -49.615051,
      -27.382984
     ],
     [
      -49.615906,
      -27.378106
     ]
    ]
   }
  },
  {
   "type": "Feature",
   "properties": {
    "nome": "Sul — edge S 1/5 (HAND 15 m)",
    "grupo": "Sul",
    "cor": "#0077b6"
   },
   "geometry": {
    "type": "LineString",
    "coordinates": [
     [
      -49.415763,
      -27.659699
     ],
     [
      -49.41778,
      -27.657206
     ],
     [
      -49.425385,
      -27.653188
     ],
     [
      -49.42922,
      -27.654322
     ],
     [
      -49.431705,
      -27.657239
     ],
     [
      -49.43307,
      -27.657292
     ],
     [
      -49.437452,
      -27.649831
     ]
    ]
   }
  },
  {
   "type": "Feature",
   "properties": {
    "nome": "Sul — edge S 2/5 (HAND 15 m)",
    "grupo": "Sul",
    "cor": "#0077b6"
   },
   "geometry": {
    "type": "LineString",
    "coordinates": [
     [
      -49.443528,
      -27.614589
     ],
     [
      -49.444961,
      -27.610786
     ],
     [
      -49.446686,
      -27.608917
     ],
     [
      -49.446814,
      -27.609681
     ],
     [
      -49.444451,
      -27.607278
     ],
     [
      -49.444235,
      -27.601745
     ],
     [
      -49.445945,
      -27.599499
     ]
    ]
   }
  },
  {
   "type": "Feature",
   "properties": {
    "nome": "Sul — edge S 3/5 (HAND 15 m)",
    "grupo": "Sul",
    "cor": "#0077b6"
   },
   "geometry": {
    "type": "LineString",
    "coordinates": [
     [
      -49.452218,
      -27.58676
     ],
     [
      -49.449456,
      -27.583864
     ],
     [
      -49.449324,
      -27.575522
     ],
     [
      -49.452541,
      -27.572655
     ],
     [
      -49.455932,
      -27.572802
     ],
     [
      -49.465417,
      -27.565228
     ],
     [
      -49.470298,
      -27.565057
     ],
     [
      -49.468954,
      -27.561773
     ],
     [
      -49.469934,
      -27.556411
     ],
     [
      -49.472392,
      -27.554505
     ],
     [
      -49.480922,
      -27.553418
     ],
     [
      -49.482504,
      -27.55549
     ]
    ]
   }
  },
  {
   "type": "Feature",
   "properties": {
    "nome": "Sul — edge S 4/5 (HAND 15 m)",
    "grupo": "Sul",
    "cor": "#0077b6"
   },
   "geometry": {
    "type": "LineString",
    "coordinates": [
     [
      -49.56987,
      -27.5022
     ],
     [
      -49.575829,
      -27.489487
     ],
     [
      -49.580849,
      -27.48433
     ],
     [
      -49.58138,
      -27.48228
     ],
     [
      -49.572858,
      -27.471796
     ],
     [
      -49.572681,
      -27.463683
     ],
     [
      -49.574865,
      -27.457223
     ],
     [
      -49.579477,
      -27.452667
     ],
     [
      -49.583917,
      -27.453515
     ],
     [
      -49.581802,
      -27.452512
     ],
     [
      -49.580045,
      -27.454412
     ],
     [
      -49.582722,
      -27.4591
     ],
     [
      -49.580121,
      -27.45847
     ],
     [
      -49.57381,
      -27.452911
     ],
     [
      -49.574818,
      -27.445748
     ]
    ]
   }
  },
  {
   "type": "Feature",
   "properties": {
    "nome": "Sul — edge S 5/5 (HAND 15 m)",
    "grupo": "Sul",
    "cor": "#0077b6"
   },
   "geometry": {
    "type": "LineString",
    "coordinates": [
     [
      -49.602203,
      -27.391737
     ],
     [
      -49.609714,
      -27.380444
     ],
     [
      -49.608951,
      -27.375954
     ]
    ]
   }
  },
  {
   "type": "Feature",
   "properties": {
    "nome": "Benedito — edge N 1/2 (HAND 15 m)",
    "grupo": "Benedito",
    "cor": "#2d6a4f"
   },
   "geometry": {
    "type": "LineString",
    "coordinates": [
     [
      -49.332992,
      -26.827542
     ],
     [
      -49.328948,
      -26.828342
     ],
     [
      -49.325148,
      -26.826494
     ],
     [
      -49.324346,
      -26.824724
     ],
     [
      -49.31439,
      -26.822893
     ],
     [
      -49.31257,
      -26.82508
     ],
     [
      -49.315319,
      -26.824163
     ],
     [
      -49.314419,
      -26.823576
     ],
     [
      -49.309755,
      -26.824718
     ],
     [
      -49.304107,
      -26.825541
     ],
     [
      -49.301606,
      -26.826378
     ],
     [
      -49.297446,
      -26.823507
     ],
     [
      -49.291392,
      -26.823455
     ],
     [
      -49.286295,
      -26.820456
     ],
     [
      -49.276255,
      -26.823357
     ]
    ]
   }
  },
  {
   "type": "Feature",
   "properties": {
    "nome": "Benedito — edge N 2/2 (HAND 15 m)",
    "grupo": "Benedito",
    "cor": "#2d6a4f"
   },
   "geometry": {
    "type": "LineString",
    "coordinates": [
     [
      -49.269558,
      -26.83805
     ],
     [
      -49.269607,
      -26.840059
     ],
     [
      -49.265791,
      -26.843076
     ],
     [
      -49.267827,
      -26.846487
     ],
     [
      -49.2696,
      -26.848684
     ],
     [
      -49.269951,
      -26.845947
     ],
     [
      -49.26809,
      -26.847893
     ],
     [
      -49.265164,
      -26.850793
     ],
     [
      -49.263765,
      -26.854114
     ],
     [
      -49.260447,
      -26.85426
     ],
     [
      -49.255754,
      -26.856827
     ],
     [
      -49.255158,
      -26.8595
     ]
    ]
   }
  },
  {
   "type": "Feature",
   "properties": {
    "nome": "Benedito — edge S (HAND 15 m)",
    "grupo": "Benedito",
    "cor": "#2d6a4f"
   },
   "geometry": {
    "type": "LineString",
    "coordinates": [
     [
      -49.3346,
      -26.842652
     ],
     [
      -49.319069,
      -26.835449
     ],
     [
      -49.314976,
      -26.831807
     ],
     [
      -49.312935,
      -26.829675
     ],
     [
      -49.323534,
      -26.830769
     ],
     [
      -49.322609,
      -26.832023
     ],
     [
      -49.313426,
      -26.832106
     ],
     [
      -49.309689,
      -26.829186
     ],
     [
      -49.298806,
      -26.830081
     ],
     [
      -49.293495,
      -26.827123
     ],
     [
      -49.287553,
      -26.826701
     ],
     [
      -49.286197,
      -26.826953
     ],
     [
      -49.28297,
      -26.829326
     ],
     [
      -49.278021,
      -26.830076
     ],
     [
      -49.274454,
      -26.837234
     ],
     [
      -49.277458,
      -26.850319
     ],
     [
      -49.273199,
      -26.853529
     ],
     [
      -49.271196,
      -26.853592
     ],
     [
      -49.266962,
      -26.8578
     ],
     [
      -49.260392,
      -26.857915
     ],
     [
      -49.2587,
      -26.860181
     ]
    ]
   }
  },
  {
   "type": "Feature",
   "properties": {
    "nome": "Iraputá — edge N (HAND 15 m)",
    "grupo": "Iraputá",
    "cor": "#6c757d"
   },
   "geometry": {
    "type": "LineString",
    "coordinates": [
     [
      -50.132031,
      -26.597576
     ],
     [
      -50.133012,
      -26.594654
     ],
     [
      -50.131635,
      -26.586533
     ],
     [
      -50.126624,
      -26.585078
     ]
    ]
   }
  },
  {
   "type": "Feature",
   "properties": {
    "nome": "Taió — edge N (HAND 15 m)",
    "grupo": "Taió",
    "cor": "#c9184a"
   },
   "geometry": {
    "type": "LineString",
    "coordinates": [
     [
      -50.092999,
      -27.210986
     ],
     [
      -50.088081,
      -27.20884
     ],
     [
      -50.080328,
      -27.207774
     ],
     [
      -50.075597,
      -27.209084
     ],
     [
      -50.074468,
      -27.210149
     ],
     [
      -50.075609,
      -27.210014
     ],
     [
      -50.073685,
      -27.209684
     ],
     [
      -50.072526,
      -27.208763
     ],
     [
      -50.071471,
      -27.205433
     ],
     [
      -50.072806,
      -27.195935
     ],
     [
      -50.063971,
      -27.192281
     ],
     [
      -50.064962,
      -27.193291
     ],
     [
      -50.068886,
      -27.195033
     ],
     [
      -50.067766,
      -27.194066
     ],
     [
      -50.063909,
      -27.192014
     ],
     [
      -50.060929,
      -27.188865
     ],
     [
      -50.059673,
      -27.185129
     ],
     [
      -50.061057,
      -27.182409
     ],
     [
      -50.058444,
      -27.173721
     ],
     [
      -50.052807,
      -27.172421
     ],
     [
      -50.039532,
      -27.161717
     ],
     [
      -50.036726,
      -27.151875
     ],
     [
      -50.02802,
      -27.137897
     ],
     [
      -50.020569,
      -27.133399
     ],
     [
      -50.02036,
      -27.124801
     ],
     [
      -50.022481,
      -27.116817
     ],
     [
      -50.018358,
      -27.113859
     ],
     [
      -50.012393,
      -27.111848
     ],
     [
      -50.004869,
      -27.109187
     ],
     [
      -50.006688,
      -27.115243
     ],
     [
      -50.008494,
      -27.11594
     ],
     [
      -50.012472,
      -27.110948
     ],
     [
      -50.020362,
      -27.111973
     ]
    ]
   }
  },
  {
   "type": "Feature",
   "properties": {
    "nome": "Taió — edge S (HAND 15 m)",
    "grupo": "Taió",
    "cor": "#c9184a"
   },
   "geometry": {
    "type": "LineString",
    "coordinates": [
     [
      -50.094863,
      -27.213912
     ],
     [
      -50.088034,
      -27.221267
     ],
     [
      -50.085188,
      -27.219749
     ],
     [
      -50.080557,
      -27.221019
     ],
     [
      -50.080232,
      -27.219554
     ],
     [
      -50.084088,
      -27.218092
     ],
     [
      -50.079873,
      -27.219995
     ],
     [
      -50.071822,
      -27.215563
     ],
     [
      -50.067449,
      -27.210539
     ],
     [
      -50.066743,
      -27.201271
     ],
     [
      -50.066383,
      -27.200461
     ],
     [
      -50.068058,
      -27.200659
     ],
     [
      -50.064895,
      -27.201416
     ],
     [
      -50.057343,
      -27.201121
     ],
     [
      -50.054439,
      -27.198729
     ],
     [
      -50.050752,
      -27.2007
     ],
     [
      -50.051556,
      -27.19902
     ],
     [
      -50.048407,
      -27.195468
     ],
     [
      -50.046136,
      -27.189866
     ],
     [
      -50.044724,
      -27.185141
     ],
     [
      -50.044704,
      -27.182299
     ],
     [
      -50.045056,
      -27.183253
     ],
     [
      -50.043712,
      -27.181299
     ],
     [
      -50.04069,
      -27.173475
     ],
     [
      -50.040858,
      -27.171989
     ],
     [
      -50.033965,
      -27.168532
     ],
     [
      -50.02755,
      -27.162352
     ],
     [
      -50.02369,
      -27.14968
     ],
     [
      -50.011172,
      -27.13643
     ],
     [
      -50.010618,
      -27.132654
     ],
     [
      -50.012928,
      -27.128156
     ],
     [
      -50.012938,
      -27.125225
     ],
     [
      -50.00971,
      -27.12338
     ],
     [
      -50.004837,
      -27.123197
     ],
     [
      -49.99857,
      -27.117656
     ]
    ]
   }
  },
  {
   "type": "Feature",
   "properties": {
    "nome": "Trombudo — edge N 1/2 (HAND 15 m)",
    "grupo": "Trombudo",
    "cor": "#7f5539"
   },
   "geometry": {
    "type": "LineString",
    "coordinates": [
     [
      -49.803288,
      -27.329384
     ],
     [
      -49.803318,
      -27.324596
     ],
     [
      -49.800482,
      -27.318218
     ],
     [
      -49.799652,
      -27.311317
     ],
     [
      -49.797601,
      -27.306743
     ],
     [
      -49.794159,
      -27.303336
     ]
    ]
   }
  },
  {
   "type": "Feature",
   "properties": {
    "nome": "Trombudo — edge N 2/2 (HAND 15 m)",
    "grupo": "Trombudo",
    "cor": "#7f5539"
   },
   "geometry": {
    "type": "LineString",
    "coordinates": [
     [
      -49.744074,
      -27.273588
     ],
     [
      -49.739994,
      -27.276965
     ],
     [
      -49.740576,
      -27.277573
     ],
     [
      -49.739531,
      -27.276558
     ],
     [
      -49.738039,
      -27.274191
     ],
     [
      -49.731454,
      -27.270855
     ],
     [
      -49.721025,
      -27.261574
     ],
     [
      -49.711872,
      -27.256995
     ],
     [
      -49.707035,
      -27.255866
     ],
     [
      -49.693427,
      -27.246553
     ]
    ]
   }
  },
  {
   "type": "Feature",
   "properties": {
    "nome": "Trombudo — edge S 1/2 (HAND 15 m)",
    "grupo": "Trombudo",
    "cor": "#7f5539"
   },
   "geometry": {
    "type": "LineString",
    "coordinates": [
     [
      -49.798388,
      -27.33207
     ],
     [
      -49.796491,
      -27.327069
     ],
     [
      -49.797379,
      -27.323731
     ],
     [
      -49.7946,
      -27.312523
     ],
     [
      -49.790769,
      -27.304513
     ]
    ]
   }
  },
  {
   "type": "Feature",
   "properties": {
    "nome": "Trombudo — edge S 2/2 (HAND 15 m)",
    "grupo": "Trombudo",
    "cor": "#7f5539"
   },
   "geometry": {
    "type": "LineString",
    "coordinates": [
     [
      -49.747366,
      -27.28116
     ],
     [
      -49.747428,
      -27.28014
     ],
     [
      -49.745376,
      -27.283513
     ],
     [
      -49.733276,
      -27.284541
     ],
     [
      -49.728724,
      -27.280307
     ],
     [
      -49.728695,
      -27.280321
     ],
     [
      -49.733058,
      -27.282753
     ],
     [
      -49.729206,
      -27.281343
     ],
     [
      -49.721408,
      -27.271991
     ],
     [
      -49.716898,
      -27.271487
     ],
     [
      -49.712675,
      -27.267005
     ],
     [
      -49.700822,
      -27.259854
     ],
     [
      -49.690335,
      -27.251052
     ]
    ]
   }
  },
  {
   "type": "Feature",
   "properties": {
    "nome": "Pombas — edge N (HAND 15 m)",
    "grupo": "Pombas",
    "cor": "#3a5a40"
   },
   "geometry": {
    "type": "LineString",
    "coordinates": [
     [
      -49.923699,
      -27.237207
     ],
     [
      -49.917707,
      -27.237849
     ],
     [
      -49.912883,
      -27.240745
     ],
     [
      -49.906694,
      -27.240382
     ],
     [
      -49.902748,
      -27.241624
     ],
     [
      -49.897997,
      -27.241901
     ],
     [
      -49.900813,
      -27.241654
     ],
     [
      -49.90396,
      -27.244899
     ],
     [
      -49.901945,
      -27.243426
     ],
     [
      -49.899848,
      -27.238372
     ],
     [
      -49.89243,
      -27.238819
     ],
     [
      -49.889553,
      -27.240889
     ],
     [
      -49.892741,
      -27.242035
     ],
     [
      -49.889321,
      -27.239532
     ],
     [
      -49.885145,
      -27.238206
     ],
     [
      -49.880464,
      -27.239468
     ],
     [
      -49.880199,
      -27.242952
     ],
     [
      -49.876774,
      -27.244971
     ],
     [
      -49.876829,
      -27.23949
     ],
     [
      -49.875157,
      -27.237804
     ],
     [
      -49.868255,
      -27.234253
     ],
     [
      -49.863584,
      -27.234996
     ],
     [
      -49.863218,
      -27.236574
     ],
     [
      -49.859701,
      -27.235253
     ],
     [
      -49.850752,
      -27.2293
     ],
     [
      -49.851037,
      -27.224441
     ],
     [
      -49.843446,
      -27.221989
     ],
     [
      -49.839575,
      -27.223095
     ],
     [
      -49.835983,
      -27.218874
     ],
     [
      -49.831178,
      -27.215693
     ],
     [
      -49.826604,
      -27.214561
     ],
     [
      -49.829211,
      -27.207207
     ],
     [
      -49.826813,
      -27.203632
     ],
     [
      -49.815309,
      -27.197265
     ],
     [
      -49.81132,
      -27.197132
     ],
     [
      -49.807938,
      -27.193235
     ],
     [
      -49.80498,
      -27.186791
     ]
    ]
   }
  },
  {
   "type": "Feature",
   "properties": {
    "nome": "Pombas — edge S (HAND 15 m)",
    "grupo": "Pombas",
    "cor": "#3a5a40"
   },
   "geometry": {
    "type": "LineString",
    "coordinates": [
     [
      -49.923597,
      -27.247769
     ],
     [
      -49.916235,
      -27.249683
     ],
     [
      -49.909888,
      -27.249694
     ],
     [
      -49.906895,
      -27.247927
     ],
     [
      -49.901081,
      -27.250385
     ],
     [
      -49.896762,
      -27.247407
     ],
     [
      -49.8961,
      -27.245094
     ],
     [
      -49.896093,
      -27.244407
     ],
     [
      -49.890888,
      -27.246051
     ],
     [
      -49.885105,
      -27.242268
     ],
     [
      -49.885236,
      -27.244898
     ],
     [
      -49.883702,
      -27.24614
     ],
     [
      -49.876069,
      -27.249394
     ],
     [
      -49.866906,
      -27.241877
     ],
     [
      -49.86182,
      -27.242538
     ],
     [
      -49.85498,
      -27.237799
     ],
     [
      -49.846559,
      -27.235022
     ],
     [
      -49.84422,
      -27.232153
     ],
     [
      -49.844001,
      -27.226676
     ],
     [
      -49.844732,
      -27.228431
     ],
     [
      -49.844676,
      -27.228555
     ],
     [
      -49.844706,
      -27.227978
     ],
     [
      -49.842943,
      -27.228221
     ],
     [
      -49.838455,
      -27.228792
     ],
     [
      -49.831676,
      -27.223596
     ],
     [
      -49.823562,
      -27.219328
     ],
     [
      -49.817359,
      -27.211164
     ],
     [
      -49.819678,
      -27.208618
     ],
     [
      -49.821074,
      -27.207737
     ],
     [
      -49.821511,
      -27.207744
     ],
     [
      -49.822122,
      -27.209117
     ],
     [
      -49.820948,
      -27.208861
     ],
     [
      -49.817807,
      -27.206957
     ],
     [
      -49.813413,
      -27.202694
     ],
     [
      -49.807743,
      -27.202328
     ],
     [
      -49.798449,
      -27.189642
     ]
    ]
   }
  },
  {
   "type": "Feature",
   "properties": {
    "nome": "Testo — edge N (HAND 15 m)",
    "grupo": "Testo",
    "cor": "#b5838d"
   },
   "geometry": {
    "type": "LineString",
    "coordinates": [
     [
      -49.152873,
      -26.855704
     ],
     [
      -49.154827,
      -26.857875
     ],
     [
      -49.152388,
      -26.864656
     ],
     [
      -49.150619,
      -26.866171
     ],
     [
      -49.15421,
      -26.86605
     ],
     [
      -49.150101,
      -26.863701
     ],
     [
      -49.145287,
      -26.864082
     ],
     [
      -49.142055,
      -26.865708
     ],
     [
      -49.139867,
      -26.869139
     ],
     [
      -49.138512,
      -26.876795
     ],
     [
      -49.138104,
      -26.881384
     ],
     [
      -49.139884,
      -26.883772
     ],
     [
      -49.139596,
      -26.881175
     ],
     [
      -49.138252,
      -26.88292
     ],
     [
      -49.137654,
      -26.883375
     ],
     [
      -49.136365,
      -26.885784
     ]
    ]
   }
  },
  {
   "type": "Feature",
   "properties": {
    "nome": "Testo — edge S (HAND 15 m)",
    "grupo": "Testo",
    "cor": "#b5838d"
   },
   "geometry": {
    "type": "LineString",
    "coordinates": [
     [
      -49.154964,
      -26.851206
     ],
     [
      -49.159712,
      -26.85567
     ],
     [
      -49.158003,
      -26.861083
     ],
     [
      -49.153957,
      -26.86966
     ],
     [
      -49.147069,
      -26.868253
     ],
     [
      -49.144256,
      -26.870781
     ],
     [
      -49.146282,
      -26.872495
     ],
     [
      -49.145063,
      -26.876845
     ],
     [
      -49.146842,
      -26.882605
     ],
     [
      -49.142984,
      -26.887291
     ]
    ]
   }
  },
  {
   "type": "Feature",
   "properties": {
    "nome": "Cedros — edge N (HAND 15 m)",
    "grupo": "Cedros",
    "cor": "#74a57f"
   },
   "geometry": {
    "type": "LineString",
    "coordinates": [
     [
      -49.264332,
      -26.741249
     ],
     [
      -49.26418,
      -26.739306
     ],
     [
      -49.262985,
      -26.741271
     ],
     [
      -49.262981,
      -26.746102
     ],
     [
      -49.264687,
      -26.74681
     ],
     [
      -49.269025,
      -26.753119
     ],
     [
      -49.264887,
      -26.75747
     ],
     [
      -49.265215,
      -26.759698
     ],
     [
      -49.266393,
      -26.757518
     ],
     [
      -49.263227,
      -26.76589
     ],
     [
      -49.267726,
      -26.789868
     ],
     [
      -49.267266,
      -26.789143
     ],
     [
      -49.265073,
      -26.792881
     ],
     [
      -49.266706,
      -26.797855
     ],
     [
      -49.268601,
      -26.801949
     ],
     [
      -49.268698,
      -26.802494
     ],
     [
      -49.267289,
      -26.798723
     ],
     [
      -49.269297,
      -26.808198
     ],
     [
      -49.273323,
      -26.813526
     ],
     [
      -49.269924,
      -26.813699
     ],
     [
      -49.268049,
      -26.801134
     ],
     [
      -49.271502,
      -26.80014
     ],
     [
      -49.269848,
      -26.804799
     ],
     [
      -49.270423,
      -26.809948
     ],
     [
      -49.269649,
      -26.814903
     ],
     [
      -49.269895,
      -26.815858
     ],
     [
      -49.271074,
      -26.814245
     ],
     [
      -49.267069,
      -26.820627
     ],
     [
      -49.272571,
      -26.823757
     ]
    ]
   }
  },
  {
   "type": "Feature",
   "properties": {
    "nome": "Cedros — edge S (HAND 15 m)",
    "grupo": "Cedros",
    "cor": "#74a57f"
   },
   "geometry": {
    "type": "LineString",
    "coordinates": [
     [
      -49.278018,
      -26.734102
     ],
     [
      -49.283422,
      -26.743005
     ],
     [
      -49.278467,
      -26.744248
     ],
     [
      -49.278318,
      -26.742571
     ],
     [
      -49.275091,
      -26.746937
     ],
     [
      -49.277168,
      -26.753218
     ],
     [
      -49.276525,
      -26.759836
     ],
     [
      -49.269454,
      -26.764851
     ],
     [
      -49.274629,
      -26.777328
     ],
     [
      -49.274406,
      -26.78067
     ],
     [
      -49.274618,
      -26.778341
     ],
     [
      -49.276922,
      -26.783546
     ],
     [
      -49.278984,
      -26.786795
     ],
     [
      -49.284817,
      -26.795693
     ],
     [
      -49.284984,
      -26.793124
     ],
     [
      -49.283973,
      -26.788162
     ],
     [
      -49.282688,
      -26.786579
     ],
     [
      -49.286983,
      -26.79053
     ],
     [
      -49.289859,
      -26.80306
     ],
     [
      -49.286163,
      -26.793467
     ],
     [
      -49.2801,
      -26.7989
     ],
     [
      -49.285493,
      -26.800101
     ],
     [
      -49.287346,
      -26.810089
     ],
     [
      -49.282543,
      -26.814471
     ],
     [
      -49.282109,
      -26.812824
     ],
     [
      -49.282531,
      -26.816751
     ],
     [
      -49.278007,
      -26.822778
     ],
     [
      -49.277692,
      -26.818582
     ],
     [
      -49.277782,
      -26.819732
     ],
     [
      -49.281171,
      -26.823862
     ]
    ]
   }
  }
 ]
}