{
 "type": "FeatureCollection",
 "crs": {
  "type": "name",
  "properties": {
   "name": "EPSG:31982"
  }
 },
 "features": [
  {
   "type": "Feature",
   "properties": {
    "nome": "Açu — edge N 1/18 (HAND 15 m)",
    "grupo": "Açu",
    "cor": "#d62828"
   },
   "geometry": {
    "type": "LineString",
    "coordinates": [
     [
      655678.1,
      7004521.4
     ],
     [
      656292.9,
      7005002.3
     ],
     [
      656726.1,
      7005848.1
     ],
     [
      657182.7,
      7006302.5
     ],
     [
      657651.0,
      7006327.6
     ],
     [
      657932.3,
      7006124.1
     ],
     [
      659076.4,
      7006940.1
     ],
     [
      658574.7,
      7007707.6
     ],
     [
      658418.7,
      7008265.6
     ],
     [
      658767.2,
      7008748.1
     ]
    ]
   }
  },
  {
   "type": "Feature",
   "properties": {
    "nome": "Açu — edge N 2/18 (HAND 15 m)",
    "grupo": "Açu",
    "cor": "#d62828"
   },
   "geometry": {
    "type": "LineString",
    "coordinates": [
     [
      661034.2,
      7010399.9
     ],
     [
      661070.3,
      7010992.7
     ],
     [
      660888.6,
      7011252.4
     ],
     [
      660673.3,
      7012720.1
     ],
     [
      660107.1,
      7013611.9
     ],
     [
      660267.8,
      7013973.2
     ],
     [
      661470.9,
      7014846.1
     ],
     [
      661575.3,
      7015671.1
     ],
     [
      661088.8,
      7016565.0
     ],
     [
      661055.9,
      7016965.3
     ],
     [
      661229.9,
      7017309.3
     ],
     [
      662361.5,
      7018238.0
     ],
     [
      662859.7,
      7018411.2
     ],
     [
      663323.0,
      7018094.5
     ],
     [
      663286.1,
      7017783.2
     ],
     [
      663739.1,
      7017203.8
     ],
     [
      664533.8,
      7016641.4
     ],
     [
      664956.6,
      7016860.1
     ],
     [
      665212.0,
      7016756.0
     ],
     [
      666099.0,
      7016803.3
     ],
     [
      666349.0,
      7016668.3
     ],
     [
      666665.8,
      7016733.7
     ],
     [
      666809.1,
      7016840.3
     ],
     [
      666842.6,
      7018188.9
     ],
     [
      668171.0,
      7017658.3
     ],
     [
      669279.4,
      7017932.7
     ],
     [
      669475.6,
      7018208.8
     ],
     [
      669431.0,
      7018842.5
     ],
     [
      670143.6,
      7019777.3
     ],
     [
      670623.0,
      7020946.2
     ],
     [
      670679.1,
      7021414.0
     ]
    ]
   }
  },
  {
   "type": "Feature",
   "properties": {
    "nome": "Açu — edge N 3/18 (HAND 15 m)",
    "grupo": "Açu",
    "cor": "#d62828"
   },
   "geometry": {
    "type": "LineString",
    "coordinates": [
     [
      676221.4,
      7025047.6
     ],
     [
      676554.0,
      7025453.4
     ],
     [
      676896.8,
      7025644.9
     ],
     [
      677804.1,
      7025411.9
     ]
    ]
   }
  },
  {
   "type": "Feature",
   "properties": {
    "nome": "Açu — edge N 4/18 (HAND 15 m)",
    "grupo": "Açu",
    "cor": "#d62828"
   },
   "geometry": {
    "type": "LineString",
    "coordinates": [
     [
      686741.0,
      7024945.5
     ],
     [
      687110.5,
      7024995.0
     ],
     [
      687560.4,
      7025699.8
     ],
     [
      688712.3,
      7025495.8
     ],
     [
      688941.0,
      7025940.8
     ],
     [
      689238.8,
      7026132.6
     ],
     [
      689746.7,
      7026075.1
     ],
     [
      690477.7,
      7026231.1
     ],
     [
      691467.7,
      7026054.7
     ],
     [
      690399.0,
      7025262.7
     ],
     [
      690618.1,
      7025013.8
     ],
     [
      691174.0,
      7023697.5
     ],
     [
      691638.0,
      7023713.7
     ]
    ]
   }
  },
  {
   "type": "Feature",
   "properties": {
    "nome": "Açu — edge N 5/18 (HAND 15 m)",
    "grupo": "Açu",
    "cor": "#d62828"
   },
   "geometry": {
    "type": "LineString",
    "coordinates": [
     [
      692337.9,
      7021672.4
     ],
     [
      692587.7,
      7021478.0
     ],
     [
      692164.0,
      7021165.5
     ],
     [
      692348.8,
      7021752.9
     ],
     [
      692669.0,
      7022007.9
     ]
    ]
   }
  },
  {
   "type": "Feature",
   "properties": {
    "nome": "Açu — edge N 6/18 (HAND 15 m)",
    "grupo": "Açu",
    "cor": "#d62828"
   },
   "geometry": {
    "type": "LineString",
    "coordinates": [
     [
      694662.4,
      7023692.4
     ],
     [
      695690.7,
      7022537.6
     ],
     [
      696209.7,
      7022684.1
     ],
     [
      696854.2,
      7023700.1
     ],
     [
      697640.1,
      7024039.0
     ],
     [
      697884.3,
      7024380.0
     ],
     [
      698630.8,
      7024437.5
     ],
     [
      699593.1,
      7024111.3
     ],
     [
      699864.2,
      7023870.0
     ],
     [
      700244.1,
      7023010.6
     ],
     [
      701374.0,
      7021317.6
     ],
     [
      701842.4,
      7021217.9
     ],
     [
      702652.4,
      7021721.1
     ],
     [
      703660.5,
      7022159.8
     ],
     [
      703932.8,
      7022078.5
     ],
     [
      703903.3,
      7022089.1
     ],
     [
      703475.5,
      7022328.9
     ],
     [
      702492.7,
      7021413.5
     ],
     [
      702032.7,
      7021114.5
     ],
     [
      702118.1,
      7020878.2
     ],
     [
      702503.3,
      7021410.2
     ],
     [
      702757.5,
      7021691.3
     ],
     [
      702902.5,
      7021899.9
     ],
     [
      703356.2,
      7022343.0
     ],
     [
      703895.3,
      7022242.7
     ],
     [
      705053.5,
      7022711.5
     ],
     [
      706071.2,
      7022644.3
     ],
     [
      706434.0,
      7023778.3
     ],
     [
      706684.0,
      7023778.3
     ],
     [
      707291.8,
      7023701.3
     ],
     [
      707175.1,
      7023688.3
     ],
     [
      707829.7,
      7023859.2
     ],
     [
      708839.6,
      7023718.4
     ],
     [
      709513.1,
      7024205.4
     ],
     [
      710122.4,
      7024033.5
     ],
     [
      710755.6,
      7023447.6
     ]
    ]
   }
  },
  {
   "type": "Feature",
   "properties": {
    "nome": "Açu — edge N 7/18 (HAND 15 m)",
    "grupo": "Açu",
    "cor": "#d62828"
   },
   "geometry": {
    "type": "LineString",
    "coordinates": [
     [
      707324.4,
      7024185.7
     ],
     [
      706922.8,
      7023317.8
     ],
     [
      707276.4,
      7023671.3
     ],
     [
      708985.5,
      7023791.1
     ],
     [
      710257.3,
      7024298.0
     ],
     [
      709576.2,
      7024028.6
     ],
     [
      710782.9,
      7024688.4
     ],
     [
      712223.8,
      7024813.3
     ]
    ]
   }
  },
  {
   "type": "Feature",
   "properties": {
    "nome": "Açu — edge N 8/18 (HAND 15 m)",
    "grupo": "Açu",
    "cor": "#d62828"
   },
   "geometry": {
    "type": "LineString",
    "coordinates": [
     [
      712554.5,
      7025137.3
     ],
     [
      712204.0,
      7025024.3
     ],
     [
      713269.8,
      7025352.3
     ],
     [
      712936.2,
      7025196.7
     ],
     [
      713168.3,
      7025289.5
     ],
     [
      713177.6,
      7025252.2
     ],
     [
      713634.4,
      7025463.5
     ],
     [
      714452.0,
      7025695.0
     ],
     [
      713638.4,
      7025376.8
     ],
     [
      712797.0,
      7024901.2
     ],
     [
      712953.2,
      7025096.4
     ],
     [
      713109.4,
      7025291.6
     ],
     [
      713827.8,
      7025037.0
     ],
     [
      714368.9,
      7025630.1
     ],
     [
      714523.3,
      7026320.7
     ],
     [
      714840.3,
      7027095.3
     ],
     [
      714343.8,
      7028406.3
     ],
     [
      715084.3,
      7029366.8
     ],
     [
      716394.1,
      7029213.2
     ],
     [
      716517.2,
      7029806.5
     ],
     [
      715799.8,
      7029581.0
     ],
     [
      716031.9,
      7029673.8
     ]
    ]
   }
  },
  {
   "type": "Feature",
   "properties": {
    "nome": "Açu — edge N 9/18 (HAND 15 m)",
    "grupo": "Açu",
    "cor": "#d62828"
   },
   "geometry": {
    "type": "LineString",
    "coordinates": [
     [
      716715.7,
      7028266.5
     ],
     [
      715828.4,
      7028143.0
     ],
     [
      716256.5,
      7028006.5
     ],
     [
      716491.1,
      7028210.6
     ]
    ]
   }
  },
  {
   "type": "Feature",
   "properties": {
    "nome": "Açu — edge N 10/18 (HAND 15 m)",
    "grupo": "Açu",
    "cor": "#d62828"
   },
   "geometry": {
    "type": "LineString",
    "coordinates": [
     [
      719062.1,
      7026403.4
     ],
     [
      720661.2,
      7026690.6
     ]
    ]
   }
  },
  {
   "type": "Feature",
   "properties": {
    "nome": "Açu — edge N 11/18 (HAND 15 m)",
    "grupo": "Açu",
    "cor": "#d62828"
   },
   "geometry": {
    "type": "LineString",
    "coordinates": [
     [
      716386.5,
      7028432.4
     ],
     [
      715838.7,
      7027589.4
     ],
     [
      714904.9,
      7027319.5
     ],
     [
      714466.4,
      7026198.7
     ],
     [
      714329.1,
      7024884.9
     ],
     [
      714374.1,
      7025634.9
     ]
    ]
   }
  },
  {
   "type": "Feature",
   "properties": {
    "nome": "Açu — edge N 12/18 (HAND 15 m)",
    "grupo": "Açu",
    "cor": "#d62828"
   },
   "geometry": {
    "type": "LineString",
    "coordinates": [
     [
      719999.1,
      7025884.9
     ],
     [
      720539.1,
      7026634.9
     ],
     [
      721079.1,
      7026884.9
     ],
     [
      721176.6,
      7027431.2
     ],
     [
      721541.1,
      7028057.9
     ],
     [
      722419.5,
      7027828.4
     ],
     [
      723157.0,
      7027941.9
     ],
     [
      723552.2,
      7028643.0
     ]
    ]
   }
  },
  {
   "type": "Feature",
   "properties": {
    "nome": "Açu — edge N 13/18 (HAND 15 m)",
    "grupo": "Açu",
    "cor": "#d62828"
   },
   "geometry": {
    "type": "LineString",
    "coordinates": [
     [
      723504.4,
      7028529.1
     ],
     [
      723614.7,
      7028849.9
     ],
     [
      722574.3,
      7029796.6
     ],
     [
      722648.1,
      7031018.3
     ],
     [
      723065.8,
      7031999.3
     ],
     [
      723994.3,
      7033113.4
     ]
    ]
   }
  },
  {
   "type": "Feature",
   "properties": {
    "nome": "Açu — edge N 14/18 (HAND 15 m)",
    "grupo": "Açu",
    "cor": "#d62828"
   },
   "geometry": {
    "type": "LineString",
    "coordinates": [
     [
      727572.0,
      7029415.8
     ],
     [
      727824.4,
      7028786.6
     ],
     [
      727874.1,
      7028292.0
     ],
     [
      728189.1,
      7028042.0
     ]
    ]
   }
  },
  {
   "type": "Feature",
   "properties": {
    "nome": "Açu — edge N 15/18 (HAND 15 m)",
    "grupo": "Açu",
    "cor": "#d62828"
   },
   "geometry": {
    "type": "LineString",
    "coordinates": [
     [
      722020.2,
      7030629.9
     ],
     [
      722196.9,
      7030806.7
     ],
     [
      722532.8,
      7030824.4
     ],
     [
      722423.2,
      7031287.5
     ],
     [
      723228.1,
      7032023.7
     ],
     [
      724495.9,
      7032372.5
     ]
    ]
   }
  },
  {
   "type": "Feature",
   "properties": {
    "nome": "Açu — edge N 16/18 (HAND 15 m)",
    "grupo": "Açu",
    "cor": "#d62828"
   },
   "geometry": {
    "type": "LineString",
    "coordinates": [
     [
      727578.1,
      7028401.8
     ],
     [
      728527.0,
      7028227.7
     ],
     [
      729695.1,
      7027794.9
     ],
     [
      730433.0,
      7027227.3
     ],
     [
      730965.3,
      7027032.4
     ],
     [
      731435.4,
      7026389.0
     ]
    ]
   }
  },
  {
   "type": "Feature",
   "properties": {
    "nome": "Açu — edge N 17/18 (HAND 15 m)",
    "grupo": "Açu",
    "cor": "#d62828"
   },
   "geometry": {
    "type": "LineString",
    "coordinates": [
     [
      730143.5,
      7028233.3
     ],
     [
      729579.9,
      7028170.5
     ],
     [
      728494.6,
      7027745.7
     ],
     [
      728715.9,
      7027860.4
     ]
    ]
   }
  },
  {
   "type": "Feature",
   "properties": {
    "nome": "Açu — edge N 18/18 (HAND 15 m)",
    "grupo": "Açu",
    "cor": "#d62828"
   },
   "geometry": {
    "type": "LineString",
    "coordinates": [
     [
      739596.9,
      7029293.1
     ],
     [
      740063.6,
      7028699.1
     ],
     [
      740113.1,
      7028395.0
     ],
     [
      739487.2,
      7028877.5
     ]
    ]
   }
  },
  {
   "type": "Feature",
   "properties": {
    "nome": "Açu — edge S 1/19 (HAND 15 m)",
    "grupo": "Açu",
    "cor": "#d62828"
   },
   "geometry": {
    "type": "LineString",
    "coordinates": [
     [
      655757.5,
      7004124.2
     ],
     [
      656040.4,
      7004209.9
     ],
     [
      656752.4,
      7004968.5
     ],
     [
      657208.9,
      7005813.8
     ],
     [
      657363.9,
      7005940.3
     ],
     [
      657662.3,
      7005822.1
     ]
    ]
   }
  },
  {
   "type": "Feature",
   "properties": {
    "nome": "Açu — edge S 2/19 (HAND 15 m)",
    "grupo": "Açu",
    "cor": "#d62828"
   },
   "geometry": {
    "type": "LineString",
    "coordinates": [
     [
      659311.2,
      7007920.9
     ],
     [
      659544.5,
      7008081.1
     ],
     [
      660067.5,
      7009102.8
     ],
     [
      661523.6,
      7010209.8
     ],
     [
      661746.9,
      7010435.3
     ],
     [
      661884.2,
      7010878.6
     ],
     [
      661409.1,
      7011561.0
     ],
     [
      661049.8,
      7013489.3
     ],
     [
      661152.7,
      7013842.6
     ],
     [
      661046.0,
      7013516.4
     ],
     [
      661219.8,
      7013656.2
     ],
     [
      661235.1,
      7013677.8
     ],
     [
      661906.5,
      7014095.5
     ],
     [
      662137.1,
      7014470.2
     ],
     [
      662325.5,
      7015821.1
     ],
     [
      662105.3,
      7016440.2
     ],
     [
      662191.9,
      7016785.6
     ],
     [
      662037.2,
      7017036.9
     ],
     [
      662679.0,
      7017444.2
     ],
     [
      662585.1,
      7017504.2
     ],
     [
      662904.2,
      7017401.4
     ],
     [
      663639.4,
      7016602.3
     ],
     [
      664019.6,
      7016359.9
     ],
     [
      665095.5,
      7016045.5
     ],
     [
      666649.9,
      7016109.1
     ],
     [
      667184.0,
      7016490.4
     ],
     [
      667214.1,
      7016840.3
     ],
     [
      666963.8,
      7017712.5
     ],
     [
      667398.8,
      7017442.5
     ],
     [
      668171.0,
      7017208.3
     ],
     [
      669446.5,
      7017514.9
     ],
     [
      669837.0,
      7017979.5
     ],
     [
      669890.6,
      7018658.6
     ],
     [
      670374.8,
      7019134.0
     ],
     [
      670827.3,
      7019893.8
     ],
     [
      671129.1,
      7021414.0
     ]
    ]
   }
  },
  {
   "type": "Feature",
   "properties": {
    "nome": "Açu — edge S 3/19 (HAND 15 m)",
    "grupo": "Açu",
    "cor": "#d62828"
   },
   "geometry": {
    "type": "LineString",
    "coordinates": [
     [
      683503.6,
      7023439.8
     ],
     [
      683917.7,
      7023323.8
     ],
     [
      684883.8,
      7023891.3
     ]
    ]
   }
  },
  {
   "type": "Feature",
   "properties": {
    "nome": "Açu — edge S 4/19 (HAND 15 m)",
    "grupo": "Açu",
    "cor": "#d62828"
   },
   "geometry": {
    "type": "LineString",
    "coordinates": [
     [
      686918.9,
      7024532.1
     ],
     [
      687184.0,
      7024553.6
     ],
     [
      687535.4,
      7024846.7
     ],
     [
      687823.7,
      7025348.1
     ],
     [
      688505.5,
      7025174.9
     ],
     [
      688862.1,
      7025271.1
     ],
     [
      689115.2,
      7025678.3
     ],
     [
      689474.8,
      7025716.6
     ]
    ]
   }
  },
  {
   "type": "Feature",
   "properties": {
    "nome": "Açu — edge S 5/19 (HAND 15 m)",
    "grupo": "Açu",
    "cor": "#d62828"
   },
   "geometry": {
    "type": "LineString",
    "coordinates": [
     [
      690111.9,
      7024081.8
     ],
     [
      691142.7,
      7023128.6
     ],
     [
      691553.6,
      7023123.9
     ],
     [
      691805.2,
      7023295.9
     ]
    ]
   }
  },
  {
   "type": "Feature",
   "properties": {
    "nome": "Açu — edge S 6/19 (HAND 15 m)",
    "grupo": "Açu",
    "cor": "#d62828"
   },
   "geometry": {
    "type": "LineString",
    "coordinates": [
     [
      691436.7,
      7020439.5
     ],
     [
      691898.9,
      7020617.1
     ],
     [
      692353.4,
      7020381.8
     ],
     [
      693203.8,
      7020873.6
     ],
     [
      693246.6,
      7021272.9
     ],
     [
      692869.7,
      7021440.3
     ]
    ]
   }
  },
  {
   "type": "Feature",
   "properties": {
    "nome": "Açu — edge S 7/19 (HAND 15 m)",
    "grupo": "Açu",
    "cor": "#d62828"
   },
   "geometry": {
    "type": "LineString",
    "coordinates": [
     [
      694481.2,
      7023330.2
     ],
     [
      694622.9,
      7022938.6
     ],
     [
      695603.1,
      7021976.1
     ],
     [
      696589.2,
      7022209.7
     ],
     [
      697051.1,
      7022566.9
     ],
     [
      698149.1,
      7023056.2
     ],
     [
      698642.9,
      7023118.9
     ],
     [
      699019.8,
      7023372.8
     ],
     [
      699222.8,
      7023373.3
     ],
     [
      699061.8,
      7023462.4
     ],
     [
      699077.1,
      7023386.1
     ],
     [
      699164.1,
      7023260.6
     ],
     [
      699389.1,
      7023010.6
     ],
     [
      699618.0,
      7022405.7
     ],
     [
      698366.4,
      7020723.7
     ],
     [
      698364.5,
      7020402.0
     ],
     [
      698750.8,
      7020053.7
     ],
     [
      699008.9,
      7019604.7
     ],
     [
      699042.3,
      7018803.2
     ],
     [
      699265.6,
      7018682.2
     ],
     [
      699425.8,
      7017674.1
     ],
     [
      699596.6,
      7017474.9
     ],
     [
      699841.3,
      7018207.2
     ],
     [
      700351.3,
      7018850.5
     ],
     [
      701457.6,
      7019032.0
     ],
     [
      702986.9,
      7018942.4
     ],
     [
      703436.6,
      7019593.3
     ],
     [
      703352.9,
      7020137.3
     ],
     [
      703592.6,
      7020538.8
     ],
     [
      704129.3,
      7021026.7
     ],
     [
      704480.7,
      7020937.4
     ]
    ]
   }
  },
  {
   "type": "Feature",
   "properties": {
    "nome": "Açu — edge S 8/19 (HAND 15 m)",
    "grupo": "Açu",
    "cor": "#d62828"
   },
   "geometry": {
    "type": "LineString",
    "coordinates": [
     [
      706858.8,
      7017303.5
     ],
     [
      707073.2,
      7017432.1
     ],
     [
      707310.7,
      7017522.2
     ],
     [
      706812.9,
      7017291.0
     ],
     [
      706156.6,
      7017195.7
     ],
     [
      705442.9,
      7017973.3
     ],
     [
      705692.9,
      7017973.3
     ],
     [
      705144.6,
      7018011.0
     ],
     [
      706181.4,
      7017478.3
     ],
     [
      706434.0,
      7016938.3
     ],
     [
      706684.0,
      7016938.3
     ],
     [
      706056.2,
      7017523.7
     ],
     [
      707175.1,
      7017433.3
     ],
     [
      706594.2,
      7017681.5
     ],
     [
      705505.7,
      7018161.9
     ],
     [
      705606.3,
      7018050.6
     ],
     [
      705296.7,
      7018342.3
     ],
     [
      705473.5,
      7018165.5
     ],
     [
      705650.2,
      7017988.7
     ],
     [
      705827.0,
      7017811.9
     ],
     [
      706003.8,
      7017635.2
     ]
    ]
   }
  },
  {
   "type": "Feature",
   "properties": {
    "nome": "Açu — edge S 9/19 (HAND 15 m)",
    "grupo": "Açu",
    "cor": "#d62828"
   },
   "geometry": {
    "type": "LineString",
    "coordinates": [
     [
      707771.6,
      7019049.4
     ],
     [
      708037.4,
      7018911.3
     ],
     [
      709298.4,
      7018993.2
     ],
     [
      710241.6,
      7019323.8
     ],
     [
      710903.8,
      7020043.9
     ],
     [
      710884.0,
      7020626.9
     ],
     [
      711612.2,
      7020850.9
     ],
     [
      712223.8,
      7021393.3
     ],
     [
      712723.8,
      7021393.3
     ],
     [
      713156.6,
      7020852.1
     ],
     [
      714772.7,
      7021278.5
     ],
     [
      715544.8,
      7020448.8
     ],
     [
      715623.2,
      7020491.5
     ],
     [
      715511.0,
      7020399.8
     ],
     [
      716439.8,
      7020707.8
     ],
     [
      717259.7,
      7021331.0
     ],
     [
      718346.4,
      7021652.7
     ],
     [
      719021.1,
      7020698.4
     ],
     [
      718776.2,
      7020535.5
     ],
     [
      718418.6,
      7021614.9
     ],
     [
      718209.6,
      7021553.7
     ],
     [
      717947.3,
      7021447.0
     ],
     [
      718193.3,
      7021514.2
     ],
     [
      719309.5,
      7020806.9
     ],
     [
      719890.6,
      7021059.9
     ],
     [
      721741.3,
      7022960.3
     ],
     [
      721098.8,
      7022390.7
     ]
    ]
   }
  },
  {
   "type": "Feature",
   "properties": {
    "nome": "Açu — edge S 10/19 (HAND 15 m)",
    "grupo": "Açu",
    "cor": "#d62828"
   },
   "geometry": {
    "type": "LineString",
    "coordinates": [
     [
      716614.4,
      7021761.1
     ],
     [
      718403.0,
      7021076.0
     ],
     [
      718986.6,
      7020667.2
     ]
    ]
   }
  },
  {
   "type": "Feature",
   "properties": {
    "nome": "Açu — edge S 11/19 (HAND 15 m)",
    "grupo": "Açu",
    "cor": "#d62828"
   },
   "geometry": {
    "type": "LineString",
    "coordinates": [
     [
      722061.8,
      7023104.5
     ],
     [
      723135.9,
      7024027.1
     ],
     [
      724394.8,
      7024213.0
     ]
    ]
   }
  },
  {
   "type": "Feature",
   "properties": {
    "nome": "Açu — edge S 12/19 (HAND 15 m)",
    "grupo": "Açu",
    "cor": "#d62828"
   },
   "geometry": {
    "type": "LineString",
    "coordinates": [
     [
      722837.8,
      7023283.3
     ],
     [
      722292.1,
      7023617.5
     ],
     [
      722590.2,
      7023833.2
     ],
     [
      722784.2,
      7023537.1
     ],
     [
      723029.3,
      7023488.1
     ]
    ]
   }
  },
  {
   "type": "Feature",
   "properties": {
    "nome": "Açu — edge S 13/19 (HAND 15 m)",
    "grupo": "Açu",
    "cor": "#d62828"
   },
   "geometry": {
    "type": "LineString",
    "coordinates": [
     [
      723191.2,
      7027860.0
     ],
     [
      723149.1,
      7028292.0
     ],
     [
      723284.1,
      7027792.0
     ],
     [
      723694.0,
      7029001.5
     ],
     [
      723346.8,
      7028335.2
     ]
    ]
   }
  },
  {
   "type": "Feature",
   "properties": {
    "nome": "Açu — edge S 14/19 (HAND 15 m)",
    "grupo": "Açu",
    "cor": "#d62828"
   },
   "geometry": {
    "type": "LineString",
    "coordinates": [
     [
      723226.3,
      7024014.8
     ],
     [
      724092.0,
      7023405.2
     ],
     [
      724712.9,
      7023258.2
     ],
     [
      725832.3,
      7023323.1
     ],
     [
      726830.3,
      7023148.3
     ],
     [
      728112.3,
      7023494.7
     ],
     [
      728797.8,
      7023852.3
     ],
     [
      729197.3,
      7023806.3
     ],
     [
      729501.3,
      7023855.8
     ],
     [
      729773.6,
      7023937.1
     ],
     [
      729433.2,
      7023764.1
     ],
     [
      729648.6,
      7023898.7
     ],
     [
      729409.6,
      7023815.1
     ],
     [
      727983.8,
      7023926.5
     ]
    ]
   }
  },
  {
   "type": "Feature",
   "properties": {
    "nome": "Açu — edge S 15/19 (HAND 15 m)",
    "grupo": "Açu",
    "cor": "#d62828"
   },
   "geometry": {
    "type": "LineString",
    "coordinates": [
     [
      728739.4,
      7023834.4
     ],
     [
      730453.6,
      7023802.0
     ]
    ]
   }
  },
  {
   "type": "Feature",
   "properties": {
    "nome": "Açu — edge S 16/19 (HAND 15 m)",
    "grupo": "Açu",
    "cor": "#d62828"
   },
   "geometry": {
    "type": "LineString",
    "coordinates": [
     [
      732638.9,
      7020838.6
     ],
     [
      733161.1,
      7020451.7
     ],
     [
      731955.8,
      7019996.6
     ],
     [
      731318.9,
      7020538.3
     ]
    ]
   }
  },
  {
   "type": "Feature",
   "properties": {
    "nome": "Açu — edge S 17/19 (HAND 15 m)",
    "grupo": "Açu",
    "cor": "#d62828"
   },
   "geometry": {
    "type": "LineString",
    "coordinates": [
     [
      730532.4,
      7022604.1
     ],
     [
      730646.1,
      7023774.4
     ],
     [
      730827.8,
      7024335.0
     ],
     [
      730074.3,
      7024617.6
     ]
    ]
   }
  },
  {
   "type": "Feature",
   "properties": {
    "nome": "Açu — edge S 18/19 (HAND 15 m)",
    "grupo": "Açu",
    "cor": "#d62828"
   },
   "geometry": {
    "type": "LineString",
    "coordinates": [
     [
      731419.7,
      7020723.3
     ],
     [
      730951.6,
      7019921.1
     ],
     [
      731661.6,
      7019399.9
     ],
     [
      730241.9,
      7019938.0
     ],
     [
      730418.6,
      7019761.3
     ],
     [
      730754.5,
      7019743.6
     ]
    ]
   }
  },
  {
   "type": "Feature",
   "properties": {
    "nome": "Açu — edge S 19/19 (HAND 15 m)",
    "grupo": "Açu",
    "cor": "#d62828"
   },
   "geometry": {
    "type": "LineString",
    "coordinates": [
     [
      732108.6,
      7020744.1
     ],
     [
      732628.1,
      7020303.6
     ],
     [
      733397.4,
      7019928.0
     ]
    ]
   }
  },
  {
   "type": "Feature",
   "properties": {
    "nome": "Mirim — edge N (HAND 15 m)",
    "grupo": "Mirim",
    "cor": "#f77f00"
   },
   "geometry": {
    "type": "LineString",
    "coordinates": [
     [
      704215.2,
      7000310.0
     ],
     [
      704267.8,
      7000507.8
     ],
     [
      704859.6,
      7001095.5
     ],
     [
      705224.0,
      7001143.3
     ],
     [
      705568.0,
      7001018.6
     ],
     [
      705869.8,
      7000646.0
     ],
     [
      706070.0,
      7000602.9
     ],
     [
      706836.8,
      7001075.3
     ],
     [
      706779.0,
      7001547.7
     ],
     [
      706918.3,
      7001756.4
     ],
     [
      706876.0,
      7001482.7
     ],
     [
      706991.0,
      7001267.5
     ],
     [
      706687.8,
      7001563.7
     ],
     [
      706562.2,
      7002497.1
     ],
     [
      706863.9,
      7002645.7
     ],
     [
      707190.6,
      7003236.2
     ],
     [
      708069.5,
      7003509.2
     ],
     [
      708384.9,
      7003743.0
     ],
     [
      709070.5,
      7004773.3
     ],
     [
      709619.6,
      7005297.7
     ],
     [
      709811.4,
      7005808.6
     ],
     [
      709661.6,
      7006285.3
     ],
     [
      709745.8,
      7006870.2
     ],
     [
      710402.8,
      7007214.2
     ],
     [
      711420.8,
      7008302.7
     ],
     [
      711872.3,
      7008527.8
     ],
     [
      712216.3,
      7008568.3
     ],
     [
      712249.2,
      7008536.7
     ],
     [
      712455.6,
      7009046.2
     ],
     [
      712330.7,
      7009466.4
     ],
     [
      712764.0,
      7010294.3
     ],
     [
      713694.1,
      7010737.3
     ],
     [
      714266.7,
      7011430.8
     ],
     [
      713891.1,
      7011604.2
     ],
     [
      713595.2,
      7011931.1
     ],
     [
      713451.3,
      7011854.5
     ],
     [
      712919.9,
      7011126.1
     ],
     [
      713858.1,
      7010065.8
     ],
     [
      713863.4,
      7010985.0
     ],
     [
      714460.1,
      7011600.5
     ],
     [
      715223.0,
      7012165.3
     ],
     [
      715804.2,
      7013258.5
     ],
     [
      716232.2,
      7013479.4
     ],
     [
      717282.8,
      7014589.6
     ],
     [
      717244.5,
      7014831.8
     ],
     [
      717435.4,
      7015297.4
     ],
     [
      717713.3,
      7015597.5
     ],
     [
      718161.0,
      7015625.3
     ],
     [
      718600.8,
      7015871.6
     ],
     [
      719221.8,
      7016516.5
     ],
     [
      719976.5,
      7016933.0
     ],
     [
      720740.2,
      7017849.2
     ],
     [
      720219.6,
      7017814.9
     ],
     [
      720091.4,
      7017668.9
     ],
     [
      720513.2,
      7018015.7
     ],
     [
      720946.3,
      7018123.9
     ],
     [
      720726.2,
      7018051.7
     ],
     [
      720799.8,
      7018140.4
     ],
     [
      720077.5,
      7019038.4
     ],
     [
      720423.0,
      7019411.5
     ],
     [
      720228.5,
      7019065.1
     ],
     [
      720154.8,
      7018848.4
     ],
     [
      720456.7,
      7019451.9
     ],
     [
      720945.4,
      7020195.2
     ],
     [
      721463.1,
      7020704.7
     ],
     [
      723486.4,
      7021750.7
     ],
     [
      724045.2,
      7021789.1
     ],
     [
      724780.4,
      7021531.6
     ],
     [
      726520.7,
      7022508.3
     ],
     [
      726665.6,
      7022752.7
     ],
     [
      726648.5,
      7023267.2
     ],
     [
      727977.7,
      7023961.3
     ],
     [
      729160.1,
      7023754.5
     ],
     [
      729874.7,
      7023993.1
     ]
    ]
   }
  },
  {
   "type": "Feature",
   "properties": {
    "nome": "Mirim — edge S 1/3 (HAND 15 m)",
    "grupo": "Mirim",
    "cor": "#f77f00"
   },
   "geometry": {
    "type": "LineString",
    "coordinates": [
     [
      704250.2,
      6999491.8
     ],
     [
      704468.2,
      6999993.7
     ],
     [
      705114.2,
      7000671.0
     ],
     [
      705224.0,
      7000693.3
     ],
     [
      705686.0,
      7000186.4
     ],
     [
      706121.5,
      7000065.4
     ],
     [
      706483.7,
      7000166.5
     ],
     [
      707633.5,
      7000988.4
     ],
     [
      707805.8,
      7001223.9
     ],
     [
      707890.9,
      7001685.6
     ],
     [
      707673.3,
      7002104.7
     ],
     [
      707623.8,
      7002265.7
     ],
     [
      707690.3,
      7002045.9
     ],
     [
      707908.5,
      7002227.9
     ],
     [
      707969.1,
      7002585.5
     ],
     [
      707963.4,
      7002436.5
     ],
     [
      708780.0,
      7002848.9
     ],
     [
      710022.2,
      7004123.4
     ],
     [
      710814.2,
      7005407.5
     ],
     [
      710927.1,
      7005788.2
     ],
     [
      710840.7,
      7006487.7
     ],
     [
      710873.2,
      7006770.0
     ],
     [
      711149.8,
      7005817.2
     ],
     [
      710751.4,
      7005499.8
     ],
     [
      710719.2,
      7006408.3
     ],
     [
      711206.8,
      7006718.9
     ],
     [
      711702.1,
      7007329.6
     ],
     [
      712620.5,
      7007766.5
     ],
     [
      712955.4,
      7008069.1
     ],
     [
      713037.4,
      7008260.7
     ],
     [
      713580.8,
      7008796.0
     ],
     [
      713811.7,
      7009176.9
     ],
     [
      714002.0,
      7009390.2
     ],
     [
      713694.1,
      7009207.3
     ],
     [
      713816.6,
      7009180.3
     ],
     [
      715510.3,
      7010089.9
     ],
     [
      715988.9,
      7010918.1
     ],
     [
      715984.4,
      7010576.5
     ],
     [
      715796.5,
      7010264.0
     ],
     [
      716685.3,
      7011580.4
     ],
     [
      716930.1,
      7012276.5
     ],
     [
      717309.6,
      7012870.6
     ],
     [
      718197.4,
      7012581.2
     ],
     [
      718618.1,
      7013521.3
     ],
     [
      718865.1,
      7013859.4
     ],
     [
      718998.1,
      7014110.3
     ],
     [
      719094.6,
      7014301.9
     ],
     [
      719017.6,
      7014197.6
     ],
     [
      719324.6,
      7014171.8
     ],
     [
      720319.6,
      7014369.9
     ],
     [
      721046.9,
      7015087.9
     ],
     [
      720563.6,
      7014807.5
     ],
     [
      719500.6,
      7014827.2
     ],
     [
      720096.0,
      7014628.0
     ]
    ]
   }
  },
  {
   "type": "Feature",
   "properties": {
    "nome": "Mirim — edge S 2/3 (HAND 15 m)",
    "grupo": "Mirim",
    "cor": "#f77f00"
   },
   "geometry": {
    "type": "LineString",
    "coordinates": [
     [
      721589.1,
      7014829.0
     ],
     [
      722096.0,
      7015664.2
     ],
     [
      721949.1,
      7015617.0
     ],
     [
      722699.0,
      7016078.8
     ],
     [
      722627.0,
      7016678.6
     ],
     [
      722873.1,
      7016961.4
     ],
     [
      724245.7,
      7017357.8
     ],
     [
      724655.6,
      7017948.2
     ],
     [
      724389.1,
      7017440.3
     ],
     [
      724189.9,
      7017296.2
     ],
     [
      723818.2,
      7017156.6
     ],
     [
      724869.2,
      7017506.4
     ],
     [
      725527.2,
      7017563.0
     ],
     [
      725590.1,
      7017274.7
     ],
     [
      726261.8,
      7017608.8
     ],
     [
      726545.6,
      7017621.7
     ]
    ]
   }
  },
  {
   "type": "Feature",
   "properties": {
    "nome": "Mirim — edge S 3/3 (HAND 15 m)",
    "grupo": "Mirim",
    "cor": "#f77f00"
   },
   "geometry": {
    "type": "LineString",
    "coordinates": [
     [
      729120.2,
      7015456.3
     ],
     [
      728623.7,
      7015126.1
     ],
     [
      729518.7,
      7015757.1
     ],
     [
      729034.8,
      7015408.7
     ],
     [
      728624.0,
      7016579.2
     ],
     [
      729455.0,
      7017131.8
     ],
     [
      729600.0,
      7017376.2
     ],
     [
      729305.0,
      7018353.7
     ],
     [
      729496.2,
      7018520.9
     ],
     [
      729548.5,
      7018919.7
     ],
     [
      730351.5,
      7019485.0
     ],
     [
      730142.0,
      7019382.2
     ],
     [
      730333.2,
      7019549.5
     ],
     [
      730385.5,
      7019948.2
     ],
     [
      730425.1,
      7022173.3
     ],
     [
      730507.6,
      7022653.1
     ],
     [
      730765.7,
      7023102.1
     ]
    ]
   }
  },
  {
   "type": "Feature",
   "properties": {
    "nome": "Oeste — edge N 1/5 (HAND 15 m)",
    "grupo": "Oeste",
    "cor": "#9d4edd"
   },
   "geometry": {
    "type": "LineString",
    "coordinates": [
     [
      599913.0,
      7001329.3
     ],
     [
      599809.2,
      7001299.0
     ],
     [
      600392.6,
      7001475.0
     ],
     [
      601345.8,
      7001386.3
     ]
    ]
   }
  },
  {
   "type": "Feature",
   "properties": {
    "nome": "Oeste — edge N 2/5 (HAND 15 m)",
    "grupo": "Oeste",
    "cor": "#9d4edd"
   },
   "geometry": {
    "type": "LineString",
    "coordinates": [
     [
      603005.6,
      7000576.3
     ],
     [
      602953.8,
      7000188.6
     ],
     [
      603187.8,
      6999895.9
     ],
     [
      603676.2,
      6999824.4
     ],
     [
      604640.1,
      6999063.2
     ],
     [
      605001.2,
      6999188.8
     ],
     [
      605393.7,
      6999150.5
     ],
     [
      606044.2,
      6998792.1
     ],
     [
      606257.8,
      6998219.8
     ],
     [
      606648.1,
      6998109.5
     ],
     [
      607254.8,
      6997449.8
     ],
     [
      607082.4,
      6996710.2
     ],
     [
      606458.7,
      6996922.2
     ],
     [
      606485.3,
      6997077.8
     ],
     [
      606587.2,
      6996944.8
     ],
     [
      606703.0,
      6996862.8
     ],
     [
      606616.2,
      6996862.7
     ],
     [
      606553.0,
      6996844.8
     ],
     [
      606761.9,
      6996997.8
     ],
     [
      607084.3,
      6997121.7
     ],
     [
      607537.7,
      6997230.2
     ],
     [
      607782.3,
      6997086.8
     ],
     [
      607758.5,
      6996963.7
     ],
     [
      608202.6,
      6997608.0
     ],
     [
      608649.1,
      6997884.3
     ],
     [
      609001.4,
      6997779.9
     ],
     [
      608812.3,
      6997305.2
     ],
     [
      608961.6,
      6997073.8
     ],
     [
      609119.1,
      6996823.8
     ],
     [
      609132.2,
      6996733.5
     ],
     [
      608920.3,
      6996822.9
     ],
     [
      609232.3,
      6997016.8
     ],
     [
      609706.2,
      6997037.9
     ],
     [
      609612.0,
      6996916.3
     ],
     [
      609749.9,
      6997074.4
     ],
     [
      610301.1,
      6997197.5
     ],
     [
      610495.9,
      6997000.2
     ],
     [
      611067.2,
      6997242.5
     ],
     [
      611514.1,
      6997208.1
     ],
     [
      611882.0,
      6996879.9
     ],
     [
      610803.7,
      6996749.4
     ]
    ]
   }
  },
  {
   "type": "Feature",
   "properties": {
    "nome": "Oeste — edge N 3/5 (HAND 15 m)",
    "grupo": "Oeste",
    "cor": "#9d4edd"
   },
   "geometry": {
    "type": "LineString",
    "coordinates": [
     [
      612833.4,
      6996276.5
     ],
     [
      613337.6,
      6996187.9
     ],
     [
      613673.1,
      6995430.1
     ],
     [
      613578.3,
      6995006.0
     ],
     [
      613556.0,
      6994638.6
     ],
     [
      613263.4,
      6994303.9
     ],
     [
      613512.4,
      6994675.8
     ],
     [
      613340.7,
      6994900.8
     ],
     [
      612668.6,
      6994928.8
     ],
     [
      612362.4,
      6994494.5
     ],
     [
      612563.7,
      6994841.1
     ],
     [
      613191.4,
      6995030.9
     ],
     [
      613608.8,
      6995068.3
     ],
     [
      613858.8,
      6995068.3
     ],
     [
      614411.9,
      6995175.3
     ],
     [
      614616.8,
      6995386.3
     ],
     [
      615175.5,
      6995245.4
     ],
     [
      615143.1,
      6994847.3
     ],
     [
      614679.3,
      6994230.4
     ],
     [
      615013.7,
      6993887.3
     ],
     [
      614954.0,
      6993704.1
     ],
     [
      614910.4,
      6993655.7
     ],
     [
      614742.7,
      6993804.8
     ],
     [
      614808.8,
      6993763.3
     ],
     [
      615058.8,
      6993628.3
     ],
     [
      615238.5,
      6993506.9
     ],
     [
      615659.5,
      6993804.2
     ],
     [
      616415.6,
      6993948.8
     ],
     [
      616944.6,
      6993718.0
     ],
     [
      617128.5,
      6993440.3
     ],
     [
      617193.9,
      6992531.2
     ],
     [
      618637.9,
      6992839.6
     ],
     [
      619348.3,
      6992451.3
     ],
     [
      620719.5,
      6992138.5
     ]
    ]
   }
  },
  {
   "type": "Feature",
   "properties": {
    "nome": "Oeste — edge N 4/5 (HAND 15 m)",
    "grupo": "Oeste",
    "cor": "#9d4edd"
   },
   "geometry": {
    "type": "LineString",
    "coordinates": [
     [
      621426.4,
      6990504.3
     ],
     [
      620962.5,
      6990774.5
     ],
     [
      621017.4,
      6991331.2
     ],
     [
      621023.8,
      6991267.5
     ],
     [
      621393.0,
      6991078.6
     ],
     [
      621691.6,
      6990880.6
     ],
     [
      621408.0,
      6990865.3
     ],
     [
      620911.2,
      6990554.7
     ],
     [
      621475.3,
      6990813.0
     ],
     [
      621605.4,
      6990879.7
     ],
     [
      621630.9,
      6990932.4
     ],
     [
      621629.1,
      6991102.4
     ],
     [
      622225.7,
      6991613.5
     ],
     [
      622513.1,
      6991236.6
     ],
     [
      622666.6,
      6989821.0
     ],
     [
      622851.0,
      6989778.8
     ],
     [
      623725.5,
      6990322.7
     ],
     [
      624077.9,
      6990219.0
     ],
     [
      624401.0,
      6989725.8
     ]
    ]
   }
  },
  {
   "type": "Feature",
   "properties": {
    "nome": "Oeste — edge N 5/5 (HAND 15 m)",
    "grupo": "Oeste",
    "cor": "#9d4edd"
   },
   "geometry": {
    "type": "LineString",
    "coordinates": [
     [
      629740.5,
      6986146.7
     ],
     [
      629857.0,
      6985967.7
     ],
     [
      629961.7,
      6985828.1
     ],
     [
      629880.6,
      6985791.9
     ],
     [
      629936.5,
      6985856.2
     ],
     [
      630119.7,
      6986007.5
     ],
     [
      630306.9,
      6986188.7
     ],
     [
      630808.4,
      6986837.3
     ]
    ]
   }
  },
  {
   "type": "Feature",
   "properties": {
    "nome": "Oeste — edge S 1/2 (HAND 15 m)",
    "grupo": "Oeste",
    "cor": "#9d4edd"
   },
   "geometry": {
    "type": "LineString",
    "coordinates": [
     [
      600025.0,
      7000209.8
     ],
     [
      601345.8,
      7000891.3
     ],
     [
      602631.8,
      7000440.6
     ],
     [
      602680.5,
      6999894.4
     ],
     [
      603103.9,
      6999476.7
     ],
     [
      603588.0,
      6999383.1
     ],
     [
      605111.5,
      6998637.2
     ],
     [
      605614.3,
      6998546.7
     ],
     [
      605742.4,
      6998066.3
     ],
     [
      605920.4,
      6997798.1
     ],
     [
      606116.6,
      6997196.4
     ],
     [
      606230.3,
      6997064.9
     ],
     [
      605864.8,
      6997727.8
     ],
     [
      605915.8,
      6997991.1
     ],
     [
      605926.2,
      6997809.7
     ],
     [
      605517.9,
      6997214.7
     ],
     [
      606355.7,
      6996284.0
     ],
     [
      606753.4,
      6996178.8
     ],
     [
      607308.5,
      6996240.4
     ],
     [
      607632.5,
      6996436.4
     ],
     [
      607253.6,
      6996519.9
     ],
     [
      607400.3,
      6996450.1
     ],
     [
      608259.7,
      6996708.3
     ],
     [
      608287.4,
      6997007.9
     ],
     [
      608368.6,
      6997133.6
     ],
     [
      608833.0,
      6997424.7
     ],
     [
      608506.6,
      6997769.3
     ],
     [
      608309.1,
      6997073.8
     ],
     [
      608579.1,
      6996823.8
     ],
     [
      608632.3,
      6996529.4
     ],
     [
      608903.7,
      6996236.9
     ],
     [
      609342.0,
      6996295.9
     ],
     [
      609529.6,
      6996155.4
     ],
     [
      610439.3,
      6996089.0
     ],
     [
      610733.8,
      6996287.3
     ],
     [
      609945.3,
      6996130.2
     ],
     [
      610865.7,
      6996364.3
     ],
     [
      610758.0,
      6996469.6
     ],
     [
      611071.4,
      6996295.6
     ],
     [
      611271.2,
      6996100.8
     ],
     [
      612012.8,
      6996111.1
     ],
     [
      612171.6,
      6996475.9
     ],
     [
      611617.6,
      6996149.7
     ],
     [
      611185.3,
      6996155.8
     ],
     [
      611371.0,
      6995691.6
     ],
     [
      612234.6,
      6995694.3
     ],
     [
      612490.2,
      6995466.8
     ],
     [
      612810.2,
      6995428.3
     ],
     [
      612955.2,
      6995423.2
     ],
     [
      612453.8,
      6994697.0
     ],
     [
      612426.1,
      6994241.3
     ],
     [
      612686.1,
      6993931.1
     ],
     [
      613191.8,
      6993882.3
     ],
     [
      613465.6,
      6994273.8
     ],
     [
      613733.6,
      6994373.1
     ],
     [
      613683.8,
      6994331.9
     ],
     [
      613608.8,
      6994303.3
     ],
     [
      613858.8,
      6994483.3
     ],
     [
      615033.5,
      6994691.7
     ],
     [
      614333.0,
      6994683.7
     ],
     [
      614265.7,
      6995198.2
     ],
     [
      613888.2,
      6994705.0
     ],
     [
      613683.3,
      6994307.0
     ],
     [
      614314.2,
      6993832.0
     ],
     [
      614314.7,
      6993536.6
     ],
     [
      614517.1,
      6993240.7
     ],
     [
      615464.1,
      6992942.9
     ],
     [
      616284.8,
      6993144.6
     ],
     [
      616489.9,
      6993470.9
     ],
     [
      616977.9,
      6992243.2
     ],
     [
      617588.9,
      6992098.3
     ],
     [
      618312.7,
      6992282.8
     ],
     [
      618805.6,
      6991715.8
     ],
     [
      618919.9,
      6991717.8
     ],
     [
      619391.3,
      6991541.6
     ],
     [
      619781.0,
      6991468.3
     ],
     [
      619740.5,
      6991480.8
     ],
     [
      619695.6,
      6991509.7
     ],
     [
      619823.8,
      6991385.8
     ],
     [
      619706.3,
      6991502.9
     ],
     [
      619880.8,
      6992045.2
     ],
     [
      619630.5,
      6991773.5
     ],
     [
      619575.9,
      6990754.6
     ],
     [
      620297.8,
      6990752.8
     ],
     [
      620483.8,
      6990547.5
     ],
     [
      620703.3,
      6990370.2
     ],
     [
      620837.4,
      6990152.5
     ],
     [
      621016.9,
      6990037.3
     ],
     [
      621408.0,
      6989875.3
     ],
     [
      621830.4,
      6990187.0
     ],
     [
      621907.3,
      6990237.0
     ],
     [
      622172.4,
      6990435.8
     ],
     [
      622619.1,
      6991102.4
     ],
     [
      621870.0,
      6990546.2
     ],
     [
      620616.6,
      6990668.7
     ],
     [
      620504.1,
      6990418.7
     ],
     [
      620729.1,
      6990168.7
     ],
     [
      622186.1,
      6989875.8
     ],
     [
      622324.6,
      6989564.5
     ],
     [
      622647.5,
      6989348.1
     ],
     [
      623290.9,
      6989512.6
     ],
     [
      623753.5,
      6989941.2
     ],
     [
      624024.9,
      6989575.4
     ]
    ]
   }
  },
  {
   "type": "Feature",
   "properties": {
    "nome": "Oeste — edge S 2/2 (HAND 15 m)",
    "grupo": "Oeste",
    "cor": "#9d4edd"
   },
   "geometry": {
    "type": "LineString",
    "coordinates": [
     [
      629389.1,
      6985865.6
     ],
     [
      629753.3,
      6985480.9
     ],
     [
      630079.7,
      6985439.2
     ],
     [
      631137.9,
      6986741.9
     ]
    ]
   }
  },
  {
   "type": "Feature",
   "properties": {
    "nome": "Sul — edge N 1/4 (HAND 15 m)",
    "grupo": "Sul",
    "cor": "#0077b6"
   },
   "geometry": {
    "type": "LineString",
    "coordinates": [
     [
      655839.7,
      6939235.8
     ],
     [
      655785.2,
      6939391.3
     ],
     [
      655275.0,
      6939653.2
     ],
     [
      655362.2,
      6939708.0
     ],
     [
      654733.8,
      6939334.9
     ],
     [
      654276.7,
      6939401.0
     ],
     [
      653714.0,
      6940356.4
     ]
    ]
   }
  },
  {
   "type": "Feature",
   "properties": {
    "nome": "Sul — edge N 2/4 (HAND 15 m)",
    "grupo": "Sul",
    "cor": "#0077b6"
   },
   "geometry": {
    "type": "LineString",
    "coordinates": [
     [
      652274.1,
      6947617.3
     ],
     [
      652514.5,
      6948244.6
     ],
     [
      652464.9,
      6948494.0
     ],
     [
      652408.5,
      6948726.3
     ],
     [
      652421.8,
      6948583.3
     ],
     [
      651750.7,
      6948648.1
     ],
     [
      651345.3,
      6949643.0
     ],
     [
      650840.3,
      6949720.0
     ],
     [
      650564.1,
      6950044.0
     ],
     [
      650609.1,
      6950723.2
     ],
     [
      650742.3,
      6950818.4
     ],
     [
      649857.2,
      6950942.2
     ]
    ]
   }
  },
  {
   "type": "Feature",
   "properties": {
    "nome": "Sul — edge N 3/4 (HAND 15 m)",
    "grupo": "Sul",
    "cor": "#0077b6"
   },
   "geometry": {
    "type": "LineString",
    "coordinates": [
     [
      640910.3,
      6957054.7
     ],
     [
      640303.0,
      6958360.7
     ],
     [
      639953.1,
      6958696.1
     ],
     [
      639908.9,
      6959000.5
     ],
     [
      640521.5,
      6960594.0
     ],
     [
      640529.1,
      6961068.8
     ],
     [
      640291.0,
      6961954.2
     ],
     [
      639730.8,
      6961948.9
     ],
     [
      639564.5,
      6962303.4
     ],
     [
      639799.4,
      6962590.3
     ],
     [
      640164.6,
      6962744.8
     ],
     [
      640133.7,
      6962912.6
     ]
    ]
   }
  },
  {
   "type": "Feature",
   "properties": {
    "nome": "Sul — edge N 4/4 (HAND 15 m)",
    "grupo": "Sul",
    "cor": "#0077b6"
   },
   "geometry": {
    "type": "LineString",
    "coordinates": [
     [
      637729.1,
      6969147.8
     ],
     [
      636947.2,
      6970383.2
     ],
     [
      636868.6,
      6970924.6
     ]
    ]
   }
  },
  {
   "type": "Feature",
   "properties": {
    "nome": "Sul — edge S 1/5 (HAND 15 m)",
    "grupo": "Sul",
    "cor": "#0077b6"
   },
   "geometry": {
    "type": "LineString",
    "coordinates": [
     [
      656264.2,
      6939490.5
     ],
     [
      656068.7,
      6939769.3
     ],
     [
      655324.2,
      6940224.1
     ],
     [
      654944.2,
      6940103.2
     ],
     [
      654695.0,
      6939783.2
     ],
     [
      654560.2,
      6939779.0
     ],
     [
      654138.4,
      6940611.1
     ]
    ]
   }
  },
  {
   "type": "Feature",
   "properties": {
    "nome": "Sul — edge S 2/5 (HAND 15 m)",
    "grupo": "Sul",
    "cor": "#0077b6"
   },
   "geometry": {
    "type": "LineString",
    "coordinates": [
     [
      653588.1,
      6944523.3
     ],
     [
      653452.0,
      6944946.4
     ],
     [
      653284.4,
      6945155.6
     ],
     [
      653270.7,
      6945071.1
     ],
     [
      653507.2,
      6945334.4
     ],
     [
      653536.3,
      6945947.1
     ],
     [
      653370.6,
      6946198.1
     ]
    ]
   }
  },
  {
   "type": "Feature",
   "properties": {
    "nome": "Sul — edge S 3/5 (HAND 15 m)",
    "grupo": "Sul",
    "cor": "#0077b6"
   },
   "geometry": {
    "type": "LineString",
    "coordinates": [
     [
      652769.1,
      6947617.3
     ],
     [
      653045.8,
      6947934.7
     ],
     [
      653070.4,
      6948858.7
     ],
     [
      652756.8,
      6949180.4
     ],
     [
      652421.8,
      6949168.3
     ],
     [
      651495.7,
      6950019.0
     ],
     [
      651014.1,
      6950044.0
     ],
     [
      651151.3,
      6950406.1
     ],
     [
      651061.8,
      6951001.4
     ],
     [
      650821.7,
      6951215.6
     ],
     [
      649980.9,
      6951346.4
     ],
     [
      649821.9,
      6951118.7
     ]
    ]
   }
  },
  {
   "type": "Feature",
   "properties": {
    "nome": "Sul — edge S 4/5 (HAND 15 m)",
    "grupo": "Sul",
    "cor": "#0077b6"
   },
   "geometry": {
    "type": "LineString",
    "coordinates": [
     [
      641263.3,
      6957125.3
     ],
     [
      640690.8,
      6958540.5
     ],
     [
      640201.4,
      6959117.5
     ],
     [
      640151.5,
      6959345.2
     ],
     [
      641006.9,
      6960497.0
     ],
     [
      641034.7,
      6961395.6
     ],
     [
      640827.1,
      6962113.8
     ],
     [
      640377.1,
      6962623.7
     ],
     [
      639937.2,
      6962534.8
     ],
     [
      640147.5,
      6962643.5
     ],
     [
      640318.7,
      6962431.1
     ],
     [
      640048.2,
      6961914.7
     ],
     [
      640306.1,
      6961981.6
     ],
     [
      640936.8,
      6962590.3
     ],
     [
      640846.3,
      6963385.0
     ]
    ]
   }
  },
  {
   "type": "Feature",
   "properties": {
    "nome": "Sul — edge S 5/5 (HAND 15 m)",
    "grupo": "Sul",
    "cor": "#0077b6"
   },
   "geometry": {
    "type": "LineString",
    "coordinates": [
     [
      638206.9,
      6969399.3
     ],
     [
      637478.1,
      6970658.8
     ],
     [
      637559.1,
      6971155.3
     ]
    ]
   }
  },
  {
   "type": "Feature",
   "properties": {
    "nome": "Benedito — edge N 1/2 (HAND 15 m)",
    "grupo": "Benedito",
    "cor": "#2d6a4f"
   },
   "geometry": {
    "type": "LineString",
    "coordinates": [
     [
      665658.0,
      7031578.0
     ],
     [
      666058.8,
      7031484.1
     ],
     [
      666439.2,
      7031683.9
     ],
     [
      666521.5,
      7031878.9
     ],
     [
      667513.7,
      7032068.7
     ],
     [
      667691.4,
      7031824.0
     ],
     [
      667419.5,
      7031929.2
     ],
     [
      667509.9,
      7031993.0
     ],
     [
      667971.7,
      7031860.3
     ],
     [
      668531.9,
      7031761.7
     ],
     [
      668779.3,
      7031665.6
     ],
     [
      669197.0,
      7031978.2
     ],
     [
      669798.8,
      7031975.8
     ],
     [
      670309.9,
      7032301.3
     ],
     [
      671303.5,
      7031966.4
     ]
    ]
   }
  },
  {
   "type": "Feature",
   "properties": {
    "nome": "Benedito — edge N 2/2 (HAND 15 m)",
    "grupo": "Benedito",
    "cor": "#2d6a4f"
   },
   "geometry": {
    "type": "LineString",
    "coordinates": [
     [
      671947.0,
      7030329.5
     ],
     [
      671939.1,
      7030107.0
     ],
     [
      672313.8,
      7029767.6
     ],
     [
      672106.3,
      7029392.4
     ],
     [
      671926.7,
      7029151.4
     ],
     [
      671896.0,
      7029455.2
     ],
     [
      672078.0,
      7029237.0
     ],
     [
      672364.4,
      7028911.8
     ],
     [
      672498.4,
      7028542.0
     ],
     [
      672827.8,
      7028521.3
     ],
     [
      673290.3,
      7028230.5
     ],
     [
      673345.4,
      7027933.5
     ]
    ]
   }
  },
  {
   "type": "Feature",
   "properties": {
    "nome": "Benedito — edge S (HAND 15 m)",
    "grupo": "Benedito",
    "cor": "#2d6a4f"
   },
   "geometry": {
    "type": "LineString",
    "coordinates": [
     [
      665476.2,
      7029906.2
     ],
     [
      667030.2,
      7030683.8
     ],
     [
      667442.4,
      7031081.9
     ],
     [
      667648.4,
      7031315.4
     ],
     [
      666593.3,
      7031208.2
     ],
     [
      666683.4,
      7031068.0
     ],
     [
      667596.0,
      7031046.7
     ],
     [
      667971.7,
      7031365.3
     ],
     [
      669052.1,
      7031251.7
     ],
     [
      669584.3,
      7031572.3
     ],
     [
      670175.5,
      7031611.1
     ],
     [
      670309.9,
      7031581.3
     ],
     [
      670627.1,
      7031314.1
     ],
     [
      671117.9,
      7031224.3
     ],
     [
      671461.6,
      7030426.5
     ],
     [
      671143.4,
      7028980.9
     ],
     [
      671561.8,
      7028619.6
     ],
     [
      671760.7,
      7028609.9
     ],
     [
      672175.1,
      7028137.9
     ],
     [
      672827.8,
      7028116.3
     ],
     [
      672992.4,
      7027862.9
     ]
    ]
   }
  },
  {
   "type": "Feature",
   "properties": {
    "nome": "Iraputá — edge N (HAND 15 m)",
    "grupo": "Iraputá",
    "cor": "#6c757d"
   },
   "geometry": {
    "type": "LineString",
    "coordinates": [
     [
      586422.1,
      7057842.6
     ],
     [
      586326.6,
      7058166.9
     ],
     [
      586469.9,
      7059065.4
     ],
     [
      586970.0,
      7059223.2
     ]
    ]
   }
  },
  {
   "type": "Feature",
   "properties": {
    "nome": "Taió — edge N (HAND 15 m)",
    "grupo": "Taió",
    "cor": "#c9184a"
   },
   "geometry": {
    "type": "LineString",
    "coordinates": [
     [
      589821.9,
      6989870.6
     ],
     [
      590310.7,
      6990104.8
     ],
     [
      591079.4,
      6990217.3
     ],
     [
      591546.9,
      6990068.8
     ],
     [
      591657.9,
      6989949.9
     ],
     [
      591545.0,
      6989965.7
     ],
     [
      591735.8,
      6990000.9
     ],
     [
      591851.3,
      6990102.1
     ],
     [
      591958.5,
      6990470.1
     ],
     [
      591834.1,
      6991523.2
     ],
     [
      592712.2,
      6991921.5
     ],
     [
      592613.2,
      6991810.3
     ],
     [
      592223.1,
      6991620.3
     ],
     [
      592334.9,
      6991726.6
     ],
     [
      592718.6,
      6991951.0
     ],
     [
      593016.4,
      6992297.6
     ],
     [
      593143.9,
      6992710.5
     ],
     [
      593009.1,
      6993012.8
     ],
     [
      593275.1,
      6993973.3
     ],
     [
      593834.7,
      6994113.1
     ],
     [
      595158.9,
      6995288.8
     ],
     [
      595445.3,
      6996376.9
     ],
     [
      596320.0,
      6997918.6
     ],
     [
      597062.3,
      6998411.1
     ],
     [
      597090.4,
      6999363.3
     ],
     [
      596887.1,
      7000249.3
     ],
     [
      597298.3,
      7000573.8
     ],
     [
      597891.3,
      7000792.0
     ],
     [
      598639.5,
      7001080.8
     ],
     [
      598453.9,
      7000411.4
     ],
     [
      598274.3,
      7000335.6
     ],
     [
      597884.3,
      7000891.7
     ],
     [
      597101.3,
      7000784.3
     ]
    ]
   }
  },
  {
   "type": "Feature",
   "properties": {
    "nome": "Taió — edge S (HAND 15 m)",
    "grupo": "Taió",
    "cor": "#c9184a"
   },
   "geometry": {
    "type": "LineString",
    "coordinates": [
     [
      589635.0,
      6989547.9
     ],
     [
      590305.3,
      6988728.2
     ],
     [
      590588.4,
      6988894.3
     ],
     [
      591046.0,
      6988750.3
     ],
     [
      591079.4,
      6988912.3
     ],
     [
      590698.7,
      6989077.1
     ],
     [
      591114.5,
      6988863.2
     ],
     [
      591915.5,
      6989348.3
     ],
     [
      592352.7,
      6989901.6
     ],
     [
      592430.2,
      6990927.7
     ],
     [
      592466.6,
      6991017.2
     ],
     [
      592300.5,
      6990996.5
     ],
     [
      592613.2,
      6990910.3
     ],
     [
      593361.4,
      6990937.3
     ],
     [
      593651.0,
      6991200.2
     ],
     [
      594014.6,
      6990979.0
     ],
     [
      593936.3,
      6991165.8
     ],
     [
      594251.2,
      6991556.8
     ],
     [
      594480.9,
      6992175.7
     ],
     [
      594624.8,
      6992698.0
     ],
     [
      594629.1,
      6993012.8
     ],
     [
      594593.5,
      6992907.4
     ],
     [
      594728.2,
      6993122.8
     ],
     [
      595034.2,
      6993987.2
     ],
     [
      595018.9,
      6994152.0
     ],
     [
      595704.7,
      6994529.6
     ],
     [
      596345.6,
      6995209.3
     ],
     [
      596739.0,
      6996610.0
     ],
     [
      597990.9,
      6998068.0
     ],
     [
      598049.1,
      6998485.9
     ],
     [
      597824.1,
      6998985.9
     ],
     [
      597825.7,
      6999310.6
     ],
     [
      598147.2,
      6999512.4
     ],
     [
      598630.4,
      6999528.9
     ],
     [
      599256.4,
      7000137.8
     ]
    ]
   }
  },
  {
   "type": "Feature",
   "properties": {
    "nome": "Trombudo — edge N 1/2 (HAND 15 m)",
    "grupo": "Trombudo",
    "cor": "#7f5539"
   },
   "geometry": {
    "type": "LineString",
    "coordinates": [
     [
      618389.1,
      6976513.9
     ],
     [
      618391.2,
      6977044.3
     ],
     [
      618678.6,
      6977748.2
     ],
     [
      618768.1,
      6978511.9
     ],
     [
      618975.9,
      6979016.6
     ],
     [
      619320.2,
      6979390.8
     ]
    ]
   }
  },
  {
   "type": "Feature",
   "properties": {
    "nome": "Trombudo — edge N 2/2 (HAND 15 m)",
    "grupo": "Trombudo",
    "cor": "#7f5539"
   },
   "geometry": {
    "type": "LineString",
    "coordinates": [
     [
      624309.8,
      6982637.4
     ],
     [
      624709.9,
      6982259.2
     ],
     [
      624651.6,
      6982192.5
     ],
     [
      624756.2,
      6982303.9
     ],
     [
      624906.5,
      6982564.6
     ],
     [
      625562.1,
      6982927.5
     ],
     [
      626605.0,
      6983945.2
     ],
     [
      627516.3,
      6984443.1
     ],
     [
      627996.5,
      6984563.2
     ],
     [
      629354.5,
      6985580.9
     ]
    ]
   }
  },
  {
   "type": "Feature",
   "properties": {
    "nome": "Trombudo — edge S 1/2 (HAND 15 m)",
    "grupo": "Trombudo",
    "cor": "#7f5539"
   },
   "geometry": {
    "type": "LineString",
    "coordinates": [
     [
      618871.1,
      6976211.7
     ],
     [
      619064.1,
      6976763.9
     ],
     [
      618979.8,
      6977134.5
     ],
     [
      619266.7,
      6978373.5
     ],
     [
      619654.4,
      6979257.1
     ]
    ]
   }
  },
  {
   "type": "Feature",
   "properties": {
    "nome": "Trombudo — edge S 2/2 (HAND 15 m)",
    "grupo": "Trombudo",
    "cor": "#7f5539"
   },
   "geometry": {
    "type": "LineString",
    "coordinates": [
     [
      623975.5,
      6981801.8
     ],
     [
      623970.5,
      6981914.9
     ],
     [
      624169.9,
      6981539.2
     ],
     [
      625366.4,
      6981413.2
     ],
     [
      625821.7,
      6981877.7
     ],
     [
      625824.5,
      6981876.1
     ],
     [
      625389.9,
      6981611.1
     ],
     [
      625772.8,
      6981763.4
     ],
     [
      626555.3,
      6982791.6
     ],
     [
      627002.3,
      6982842.8
     ],
     [
      627425.4,
      6983335.0
     ],
     [
      628607.0,
      6984115.1
     ],
     [
      629655.5,
      6985079.3
     ]
    ]
   }
  },
  {
   "type": "Feature",
   "properties": {
    "nome": "Pombas — edge N (HAND 15 m)",
    "grupo": "Pombas",
    "cor": "#3a5a40"
   },
   "geometry": {
    "type": "LineString",
    "coordinates": [
     [
      606564.1,
      6986833.3
     ],
     [
      607156.8,
      6986757.1
     ],
     [
      607631.7,
      6986432.2
     ],
     [
      608244.8,
      6986467.0
     ],
     [
      608634.3,
      6986326.0
     ],
     [
      609104.4,
      6986291.2
     ],
     [
      608825.9,
      6986321.0
     ],
     [
      608511.1,
      6985964.3
     ],
     [
      608712.1,
      6986125.7
     ],
     [
      608924.6,
      6986683.8
     ],
     [
      609658.7,
      6986627.8
     ],
     [
      609941.5,
      6986395.9
     ],
     [
      609624.7,
      6986271.8
     ],
     [
      609965.8,
      6986546.0
     ],
     [
      610380.6,
      6986689.3
     ],
     [
      610842.9,
      6986545.3
     ],
     [
      610865.6,
      6986159.1
     ],
     [
      611202.7,
      6985932.5
     ],
     [
      611202.8,
      6986539.7
     ],
     [
      611370.0,
      6986724.9
     ],
     [
      612057.0,
      6987112.1
     ],
     [
      612518.7,
      6987025.7
     ],
     [
      612553.4,
      6986850.5
     ],
     [
      612903.0,
      6986993.7
     ],
     [
      613795.1,
      6987645.0
     ],
     [
      613771.9,
      6988183.5
     ],
     [
      614526.1,
      6988448.2
     ],
     [
      614908.3,
      6988322.2
     ],
     [
      615268.4,
      6988786.5
     ],
     [
      615747.5,
      6989134.4
     ],
     [
      616201.7,
      6989255.6
     ],
     [
      615951.1,
      6990072.6
     ],
     [
      616192.3,
      6990466.5
     ],
     [
      617338.5,
      6991161.0
     ],
     [
      617733.7,
      6991172.0
     ],
     [
      618072.8,
      6991600.5
     ],
     [
      618372.6,
      6992311.6
     ]
    ]
   }
  },
  {
   "type": "Feature",
   "properties": {
    "nome": "Pombas — edge S (HAND 15 m)",
    "grupo": "Pombas",
    "cor": "#3a5a40"
   },
   "geometry": {
    "type": "LineString",
    "coordinates": [
     [
      606564.1,
      6985663.3
     ],
     [
      607291.2,
      6985444.9
     ],
     [
      607919.6,
      6985438.3
     ],
     [
      608217.6,
      6985631.4
     ],
     [
      608790.8,
      6985354.1
     ],
     [
      609221.4,
      6985680.2
     ],
     [
      609289.2,
      6985935.9
     ],
     [
      609290.5,
      6986012.0
     ],
     [
      609804.3,
      6985825.3
     ],
     [
      610380.6,
      6986239.3
     ],
     [
      610365.0,
      6985948.0
     ],
     [
      610515.6,
      6985809.1
     ],
     [
      611268.1,
      6985441.9
     ],
     [
      612182.9,
      6986266.4
     ],
     [
      612685.8,
      6986188.6
     ],
     [
      613367.9,
      6986707.4
     ],
     [
      614204.5,
      6987007.3
     ],
     [
      614439.1,
      6987323.0
     ],
     [
      614466.3,
      6987929.6
     ],
     [
      614392.2,
      6987735.8
     ],
     [
      614397.6,
      6987722.0
     ],
     [
      614395.2,
      6987786.0
     ],
     [
      614569.5,
      6987757.4
     ],
     [
      615013.4,
      6987690.1
     ],
     [
      615690.0,
      6988259.4
     ],
     [
      616498.0,
      6988724.7
     ],
     [
      617120.9,
      6989623.3
     ],
     [
      616893.8,
      6989907.5
     ],
     [
      616756.5,
      6990006.4
     ],
     [
      616713.2,
      6990006.0
     ],
     [
      616651.3,
      6989854.5
     ],
     [
      616767.8,
      6989881.7
     ],
     [
      617080.9,
      6990089.7
     ],
     [
      617520.6,
      6990557.9
     ],
     [
      618082.6,
      6990593.1
     ],
     [
      619016.6,
      6991989.6
     ]
    ]
   }
  },
  {
   "type": "Feature",
   "properties": {
    "nome": "Testo — edge N (HAND 15 m)",
    "grupo": "Testo",
    "cor": "#b5838d"
   },
   "geometry": {
    "type": "LineString",
    "coordinates": [
     [
      683515.3,
      7028210.1
     ],
     [
      683317.7,
      7027972.4
     ],
     [
      683549.1,
      7027217.6
     ],
     [
      683722.4,
      7027047.2
     ],
     [
      683365.8,
      7027065.8
     ],
     [
      683777.9,
      7027320.1
     ],
     [
      684255.6,
      7027270.9
     ],
     [
      684574.1,
      7027086.0
     ],
     [
      684785.9,
      7026702.7
     ],
     [
      684908.1,
      7025852.5
     ],
     [
      684941.2,
      7025343.5
     ],
     [
      684760.4,
      7025081.5
     ],
     [
      684793.3,
      7025368.8
     ],
     [
      684924.0,
      7025173.5
     ],
     [
      684982.6,
      7025122.2
     ],
     [
      685106.8,
      7024853.5
     ]
    ]
   }
  },
  {
   "type": "Feature",
   "properties": {
    "nome": "Testo — edge S (HAND 15 m)",
    "grupo": "Testo",
    "cor": "#b5838d"
   },
   "geometry": {
    "type": "LineString",
    "coordinates": [
     [
      683314.8,
      7028711.5
     ],
     [
      682835.8,
      7028223.7
     ],
     [
      682996.9,
      7027621.6
     ],
     [
      683385.1,
      7026665.5
     ],
     [
      684071.8,
      7026811.3
     ],
     [
      684347.2,
      7026527.2
     ],
     [
      684143.1,
      7026340.2
     ],
     [
      684257.2,
      7025856.5
     ],
     [
      684071.1,
      7025220.9
     ],
     [
      684446.7,
      7024696.2
     ]
    ]
   }
  },
  {
   "type": "Feature",
   "properties": {
    "nome": "Cedros — edge N (HAND 15 m)",
    "grupo": "Cedros",
    "cor": "#74a57f"
   },
   "geometry": {
    "type": "LineString",
    "coordinates": [
     [
      672612.8,
      7041046.6
     ],
     [
      672630.9,
      7041261.7
     ],
     [
      672746.8,
      7041042.4
     ],
     [
      672739.9,
      7040507.1
     ],
     [
      672569.1,
      7040431.0
     ],
     [
      672128.1,
      7039738.0
     ],
     [
      672533.1,
      7039250.3
     ],
     [
      672497.1,
      7039003.9
     ],
     [
      672383.3,
      7039247.1
     ],
     [
      672685.5,
      7038315.3
     ],
     [
      672201.9,
      7035664.9
     ],
     [
      672248.7,
      7035744.6
     ],
     [
      672461.1,
      7035327.5
     ],
     [
      672291.2,
      7034778.7
     ],
     [
      672096.6,
      7034327.7
     ],
     [
      672086.2,
      7034267.5
     ],
     [
      672232.0,
      7034683.3
     ],
     [
      672018.0,
      7033636.4
     ],
     [
      671609.8,
      7033051.5
     ],
     [
      671947.4,
      7033027.8
     ],
     [
      672152.8,
      7034417.2
     ],
     [
      671811.0,
      7034532.1
     ],
     [
      671968.4,
      7034013.7
     ],
     [
      671903.4,
      7033444.0
     ],
     [
      671972.9,
      7032894.0
     ],
     [
      671947.0,
      7032788.5
     ],
     [
      671832.2,
      7032968.8
     ],
     [
      672220.7,
      7032256.4
     ],
     [
      671669.1,
      7031917.0
     ]
    ]
   }
  },
  {
   "type": "Feature",
   "properties": {
    "nome": "Cedros — edge S (HAND 15 m)",
    "grupo": "Cedros",
    "cor": "#74a57f"
   },
   "geometry": {
    "type": "LineString",
    "coordinates": [
     [
      671262.2,
      7041856.9
     ],
     [
      670711.4,
      7040877.8
     ],
     [
      671202.4,
      7040733.5
     ],
     [
      671219.7,
      7040919.1
     ],
     [
      671534.1,
      7040431.0
     ],
     [
      671318.1,
      7039738.0
     ],
     [
      671372.1,
      7039003.9
     ],
     [
      672067.8,
      7038438.8
     ],
     [
      671534.4,
      7037063.5
     ],
     [
      671551.5,
      7036693.0
     ],
     [
      671534.0,
      7036951.3
     ],
     [
      671297.1,
      7036377.7
     ],
     [
      671087.2,
      7036020.6
     ],
     [
      670493.9,
      7035042.6
     ],
     [
      670481.1,
      7035327.5
     ],
     [
      670589.1,
      7035875.8
     ],
     [
      670719.2,
      7036049.5
     ],
     [
      670286.2,
      7035617.5
     ],
     [
      669981.6,
      7034233.3
     ],
     [
      670363.4,
      7035291.1
     ],
     [
      670958.0,
      7034681.0
     ],
     [
      670420.1,
      7034555.2
     ],
     [
      670220.9,
      7033451.2
     ],
     [
      670691.8,
      7032959.3
     ],
     [
      670737.4,
      7033141.1
     ],
     [
      670689.6,
      7032706.7
     ],
     [
      671130.2,
      7032032.8
     ],
     [
      671167.9,
      7032497.3
     ],
     [
      671157.2,
      7032370.0
     ],
     [
      670814.1,
      7031917.0
     ]
    ]
   }
  }
 ]
}