{"type":"FeatureCollection","features":[{"type":"Feature","properties":{"nome":"","tipo":"weir"},"geometry":{"type":"Point","coordinates":[-49.8409427,-27.5243253]}},{"type":"Feature","properties":{"nome":"","tipo":"weir"},"geometry":{"type":"Point","coordinates":[-49.7992005,-27.3103961]}},{"type":"Feature","properties":{"nome":"","tipo":"weir"},"geometry":{"type":"Point","coordinates":[-49.8532962,-27.448685]}},{"type":"Feature","properties":{"nome":"","tipo":"weir"},"geometry":{"type":"Point","coordinates":[-49.8295937,-27.3829629]}},{"type":"Feature","properties":{"nome":"","tipo":"weir"},"geometry":{"type":"Point","coordinates":[-49.6392405,-27.4141772]}},{"type":"Feature","properties":{"nome":"","tipo":"weir"},"geometry":{"type":"LineString","coordinates":[[-50.1154045,-27.2072409],[-50.1153266,-27.2071916],[-50.1151577,-27.2071335]]}},{"type":"Feature","properties":{"nome":"","tipo":"weir"},"geometry":{"type":"LineString","coordinates":[[-49.636029,-27.3093446],[-49.6357493,-27.3097328],[-49.6353705,-27.3096974]]}},{"type":"Feature","properties":{"nome":"","tipo":"weir"},"geometry":{"type":"LineString","coordinates":[[-49.6105614,-27.4041086],[-49.6103686,-27.404028],[-49.6097386,-27.4034905],[-49.6094084,-27.4032089],[-49.6092576,-27.4031476]]}},{"type":"Feature","properties":{"nome":"","tipo":"dam"},"geometry":{"type":"Point","coordinates":[-49.3801887,-27.2803655]}},{"type":"Feature","properties":{"nome":"","tipo":"weir"},"geometry":{"type":"Point","coordinates":[-49.1393264,-27.1784101]}},{"type":"Feature","properties":{"nome":"Barragem Vertedouro Salto Pil\u00e3o","tipo":"weir"},"geometry":{"type":"LineString","coordinates":[[-49.5186591,-27.1351774],[-49.5185459,-27.1352762],[-49.5184778,-27.1353451],[-49.5184131,-27.1354397],[-49.5183523,-27.1355556],[-49.5183138,-27.1356402],[-49.5182911,-27.1357452],[-49.5182876,-27.1358628],[-49.5182883,-27.1359881],[-49.5182917,-27.1360354],[-49.5183032,-27.1362333],[-49.5183004,-27.1363456],[-49.5182844,-27.1364398],[-49.5182334,-27.1365819],[-49.5181766,-27.1367014],[-49.5181006,-27.1368027],[-49.5180122,-27.1368991]]}},{"type":"Feature","properties":{"nome":"","tipo":"dam"},"geometry":{"type":"LineString","coordinates":[[-49.5558207,-27.5061308],[-49.5554133,-27.5054733],[-49.5551629,-27.5048507],[-49.5551432,-27.504528],[-49.5551433,-27.504154],[-49.5552493,-27.5039496]]}},{"type":"Feature","properties":{"nome":"","tipo":"dam"},"geometry":{"type":"LineString","coordinates":[[-49.518121,-27.1371812],[-49.5180342,-27.1371055],[-49.5179178,-27.1370114]]}},{"type":"Feature","properties":{"nome":"Barragem Vertedouro Salto Pil\u00e3o","tipo":"dam"},"geometry":{"type":"LineString","coordinates":[[-49.5180122,-27.1368991],[-49.5179867,-27.1369269],[-49.5179178,-27.1370114]]}},{"type":"Feature","properties":{"nome":"","tipo":"dam"},"geometry":{"type":"LineString","coordinates":[[-49.5553235,-27.5034313],[-49.555276,-27.5034277],[-49.5550185,-27.5033397],[-49.554686,-27.5033659],[-49.5544902,-27.5034468],[-49.5543748,-27.5035324],[-49.5542541,-27.5036442],[-49.5540342,-27.5038845],[-49.5538627,-27.5039833],[-49.5537142,-27.5038992],[-49.5536037,-27.503846],[-49.5534283,-27.5037657]]}},{"type":"Feature","properties":{"nome":"","tipo":"dam"},"geometry":{"type":"Point","coordinates":[-49.6817863,-26.9875286]}},{"type":"Feature","properties":{"nome":"","tipo":"weir"},"geometry":{"type":"Point","coordinates":[-49.6778217,-26.988497]}},{"type":"Feature","properties":{"nome":"","tipo":"weir"},"geometry":{"type":"Point","coordinates":[-50.1713254,-26.9556708]}},{"type":"Feature","properties":{"nome":"","tipo":"weir"},"geometry":{"type":"Point","coordinates":[-50.1744051,-27.0235681]}},{"type":"Feature","properties":{"nome":"","tipo":"weir"},"geometry":{"type":"Point","coordinates":[-50.1672194,-26.9497406]}},{"type":"Feature","properties":{"nome":"","tipo":"weir"},"geometry":{"type":"Point","coordinates":[-50.1729728,-26.9549572]}},{"type":"Feature","properties":{"nome":"","tipo":"weir"},"geometry":{"type":"Point","coordinates":[-50.0047687,-26.9766579]}},{"type":"Feature","properties":{"nome":"","tipo":"weir"},"geometry":{"type":"Point","coordinates":[-50.1826331,-26.6796931]}},{"type":"Feature","properties":{"nome":"","tipo":"weir"},"geometry":{"type":"Point","coordinates":[-49.8368543,-26.7059429]}},{"type":"Feature","properties":{"nome":"","tipo":"weir"},"geometry":{"type":"Point","coordinates":[-49.9998204,-26.8049453]}},{"type":"Feature","properties":{"nome":"","tipo":"weir"},"geometry":{"type":"Point","coordinates":[-49.8816032,-26.6563937]}},{"type":"Feature","properties":{"nome":"","tipo":"dam"},"geometry":{"type":"LineString","coordinates":[[-49.9725569,-27.0454543],[-49.9723519,-27.0455791],[-49.9721922,-27.0456789]]}},{"type":"Feature","properties":{"nome":"","tipo":"dam"},"geometry":{"type":"LineString","coordinates":[[-49.9772301,-27.0610468],[-49.9769968,-27.0610241],[-49.97664,-27.0609918]]}},{"type":"Feature","properties":{"nome":"","tipo":"weir"},"geometry":{"type":"LineString","coordinates":[[-50.1599026,-27.0160894],[-50.1601736,-27.0161018],[-50.1614365,-27.0160127],[-50.161643,-27.0157881],[-50.1619255,-27.0155886]]}},{"type":"Feature","properties":{"nome":"","tipo":"weir"},"geometry":{"type":"Point","coordinates":[-49.2291156,-26.8713948]}},{"type":"Feature","properties":{"nome":"","tipo":"weir"},"geometry":{"type":"Point","coordinates":[-49.1610595,-26.8206935]}},{"type":"Feature","properties":{"nome":"","tipo":"weir"},"geometry":{"type":"Point","coordinates":[-49.1652492,-26.7110208]}},{"type":"Feature","properties":{"nome":"","tipo":"weir"},"geometry":{"type":"Point","coordinates":[-49.1820936,-26.7341964]}},{"type":"Feature","properties":{"nome":"","tipo":"weir"},"geometry":{"type":"Point","coordinates":[-49.1838762,-26.7321343]}},{"type":"Feature","properties":{"nome":"","tipo":"weir"},"geometry":{"type":"Point","coordinates":[-49.1749783,-26.7031382]}},{"type":"Feature","properties":{"nome":"","tipo":"weir"},"geometry":{"type":"Point","coordinates":[-49.1888729,-26.8104816]}},{"type":"Feature","properties":{"nome":"","tipo":"weir"},"geometry":{"type":"Point","coordinates":[-49.2294095,-26.8707611]}},{"type":"Feature","properties":{"nome":"","tipo":"weir"},"geometry":{"type":"Point","coordinates":[-49.4387475,-26.8229386]}},{"type":"Feature","properties":{"nome":"Dique Fortaleza","tipo":"dam"},"geometry":{"type":"Polygon","coordinates":[[[-49.0604454,-26.8932754],[-49.0604613,-26.8933424],[-49.060405,-26.8934118],[-49.0603432,-26.8934266],[-49.0602161,-26.8933842],[-49.0602013,-26.8933304],[-49.0602811,-26.8933124],[-49.060277,-26.8932945],[-49.0603129,-26.8932866],[-49.0603381,-26.8932816],[-49.0603424,-26.8932984],[-49.0604454,-26.8932754]]]}},{"type":"Feature","properties":{"nome":"","tipo":"weir"},"geometry":{"type":"LineString","coordinates":[[-49.3386007,-26.6486958],[-49.3385604,-26.6488928],[-49.3385255,-26.6490638]]}},{"type":"Feature","properties":{"nome":"","tipo":"dam"},"geometry":{"type":"Polygon","coordinates":[[[-49.356977,-26.6442428],[-49.3569492,-26.6443814],[-49.3569251,-26.6445337],[-49.3568939,-26.6447089],[-49.3568311,-26.6450619],[-49.3566442,-26.6447599],[-49.356704,-26.6445344],[-49.3567491,-26.6443641],[-49.356977,-26.6442428]]]}},{"type":"Feature","properties":{"nome":"","tipo":"weir"},"geometry":{"type":"LineString","coordinates":[[-49.2763528,-26.8261838],[-49.2764325,-26.8262877],[-49.2764812,-26.8264059],[-49.2764959,-26.8265311],[-49.2764819,-26.826634],[-49.2764448,-26.8267322],[-49.2765037,-26.8268135],[-49.2765353,-26.8269031],[-49.2765413,-26.8269969],[-49.2765363,-26.8271072]]}},{"type":"Feature","properties":{"nome":"","tipo":"weir"},"geometry":{"type":"LineString","coordinates":[[-49.3506072,-26.6550938],[-49.3504853,-26.6551799],[-49.3503548,-26.655272]]}},{"type":"Feature","properties":{"nome":"","tipo":"weir"},"geometry":{"type":"LineString","coordinates":[[-49.1195785,-26.8849015],[-49.1194865,-26.8850569],[-49.1191215,-26.8851073],[-49.1187849,-26.8850994],[-49.1185882,-26.8850741],[-49.1185644,-26.8849824],[-49.1181502,-26.8848934],[-49.1178061,-26.8848589],[-49.1176959,-26.8848695],[-49.1174173,-26.8848071],[-49.1173719,-26.8847091]]}},{"type":"Feature","properties":{"nome":"","tipo":"weir"},"geometry":{"type":"LineString","coordinates":[[-49.1151072,-26.8829378],[-49.1148616,-26.883088],[-49.1146918,-26.8831412],[-49.1145366,-26.8831437]]}},{"type":"Feature","properties":{"nome":"","tipo":"weir"},"geometry":{"type":"LineString","coordinates":[[-49.1127575,-26.8827388],[-49.1126195,-26.8827714],[-49.1118627,-26.8826625],[-49.1116422,-26.8825881],[-49.1116422,-26.8824632],[-49.1116152,-26.8823593]]}},{"type":"Feature","properties":{"nome":"","tipo":"weir"},"geometry":{"type":"LineString","coordinates":[[-49.1105559,-26.880465],[-49.1101845,-26.8801732],[-49.1099976,-26.8799516],[-49.1097607,-26.8796977],[-49.1096185,-26.8796122],[-49.1093539,-26.8795832],[-49.1091929,-26.8795605],[-49.1087979,-26.8795577],[-49.1087568,-26.8795943],[-49.1087515,-26.8796648],[-49.1086988,-26.8797051]]}},{"type":"Feature","properties":{"nome":"","tipo":"weir"},"geometry":{"type":"LineString","coordinates":[[-49.4015906,-26.7813706],[-49.4015112,-26.7812111],[-49.4014192,-26.7811575],[-49.4011644,-26.7811886],[-49.4010276,-26.7812629],[-49.400872,-26.7812605],[-49.4003463,-26.7814879],[-49.4002147,-26.7813873]]}}]}