{
 "type": "FeatureCollection",
 "crs": {
  "type": "name",
  "properties": {
   "name": "urn:ogc:def:crs:EPSG::31982"
  }
 },
 "features": [
  {
   "type": "Feature",
   "properties": {
    "nome": "Canal Retificado",
    "comprimento_m": 7549.836271294731
   },
   "geometry": {
    "type": "LineString",
    "coordinates": [
     [
      723201.7673811505,
      7019243.886364067
     ],
     [
      723347.7561855074,
      7019280.185100809
     ],
     [
      723464.2868088721,
      7019325.36422207
     ],
     [
      723626.3456830678,
      7019396.389473048
     ],
     [
      723778.9428236521,
      7019482.733832594
     ],
     [
      724002.2010578472,
      7019633.513524678
     ],
     [
      724095.9781570677,
      7019701.129024269
     ],
     [
      724856.363024029,
      7020197.411044465
     ],
     [
      726961.1469323814,
      7021558.144131552
     ],
     [
      727063.8773021467,
      7021624.54741445
     ],
     [
      729585.4127827219,
      7023250.788072548
     ]
    ]
   }
  }
 ]
}